State,District,Hospital_Name,Hospital_Category,Hospital_Care_Type,Discipline_Systems_of_Medicine,Specialties,Facilities,Telephone,Mobile_Number,Emergency_Num,Website,Pincode,Languages,Cost_Category,Supports_Immigrants
Kerala,Alappuzha,Josco Hospital - Alappuzha,,,,Josco Hospital - Alappuzha,,,,,,688001,"Malayalam, English",Paid/Private,Yes
Kerala,Alappuzha,Mammen Memmorial Hospital,,,,Mammen Memmorial Hospital,,,,,,688001,"Malayalam, English",Paid/Private,Yes
Kerala,Alappuzha,Sahrudaya Hospital,,,,Sahrudaya Hospital,,,,,,688013,"Malayalam, English",Paid/Private,Yes
Kerala,Alappuzha,St Michaels Hospital Tsunami Project Only),,,,St Michaels Hospital Tsunami Project Only),,,,,,688522,"Malayalam, English",Paid/Private,Yes
Kerala,Alappuzha,S H General Hospital,,,,S H General Hospital,,,,,,688523,"Malayalam, English",Paid/Private,Yes
Kerala,Alappuzha,K V M Mutispeciality Hospital,,,,K V M Mutispeciality Hospital,,,,,,688524,"Malayalam, English",Paid/Private,Yes
Kerala,Alappuzha,Prathyasa Msgr Joseph Kandathil Memorial Cancer Research Center,,,,Prathyasa Msgr Joseph Kandathil Memorial Cancer Research Center,,,,,,688524,"Malayalam, English",Paid/Private,Yes
Kerala,Alappuzha,"Primary Health Centre, Vrvm",,,,"Primary Health Centre, Vrvm",,,,,,688524,"Malayalam, English",Paid/Private,Yes
Kerala,Alappuzha,Sacred Heart General Hospital,,,,Sacred Heart General Hospital,,,,,,688524,"Malayalam, English",Paid/Private,Yes
Kerala,Alappuzha,Sree Narayana Medical Mission General Hospital,,,,Sree Narayana Medical Mission General Hospital,,,,,,688524,"Malayalam, English",Paid/Private,Yes
Kerala,Alappuzha,Sree Venkateswara Hospital,,,,Sree Venkateswara Hospital,,,,,,688524,"Malayalam, English",Paid/Private,Yes
Kerala,Alappuzha,T.D. Medical College Hospital Alappuzha,,,,T.D. Medical College Hospital Alappuzha,,,,,,688524,"Malayalam, English",Paid/Private,Yes
Kerala,Alappuzha,Taluk Head Quartes Hospital,,,,Taluk Head Quartes Hospital,,,,,,688524,"Malayalam, English",Paid/Private,Yes
Kerala,Alappuzha,C K V Hospital,,,,C K V Hospital,,,,,,688526,"Malayalam, English",Paid/Private,Yes
Kerala,Alappuzha,St Sebastians Visitation Hospital (Tsunami Project Only),,,,St Sebastians Visitation Hospital (Tsunami Project Only),,,,,,688530,"Malayalam, English",Paid/Private,Yes
Kerala,Alappuzha,Primary Health Centre,,,,Primary Health Centre,,,,,,688532,"Malayalam, English",Paid/Private,Yes
Kerala,Alappuzha,Shanthi Hospital,,,,Shanthi Hospital,,,,,,688532,"Malayalam, English",Paid/Private,Yes
Kerala,Alappuzha,Lakshmi Hospital,,,,Lakshmi Hospital,,,,,,688534,"Malayalam, English",Paid/Private,Yes
Kerala,Alappuzha,Moham Hospital Tsunami Project Only),,,,Moham Hospital Tsunami Project Only),,,,,,688537,"Malayalam, English",Paid/Private,Yes
Kerala,Alappuzha,Nicholas Hospital,,,,Nicholas Hospital,,,,,,688537,"Malayalam, English",Paid/Private,Yes
Kerala,Alappuzha,Kinder Womens Hspital and Fertility Centre (P) Ltd.,,,,Kinder Womens Hspital and Fertility Centre (P) Ltd.,,,,,,688539,"Malayalam, English",Paid/Private,Yes
Kerala,Alappuzha,St Thomas,,,,St Thomas,,,,,,688541,"Malayalam, English",Paid/Private,Yes
Kerala,Alappuzha,Ursula Hospital Tsunami Project Only),,,,Ursula Hospital Tsunami Project Only),,,,,,688561,"Malayalam, English",Paid/Private,Yes
Kerala,Alappuzha,"R.B.M. Hospital,",,,,"R.B.M. Hospital,",,,,,,688562,"Malayalam, English",Paid/Private,Yes
Kerala,Alappuzha,Usha Nursing Home,,,,Usha Nursing Home,,,,,,689122,"Malayalam, English",Paid/Private,Yes
Kerala,Alappuzha,Century Hospital,,,,Century Hospital,,,,,,689505,"Malayalam, English",Paid/Private,Yes
Kerala,Alappuzha,Pamlatheeram Ayurvedic Riverside Village,,,,Pamlatheeram Ayurvedic Riverside Village,,,,,,689505,"Malayalam, English",Paid/Private,Yes
Kerala,Alappuzha,Venad Hospital,,,,Venad Hospital,,,,,,689505,"Malayalam, English",Paid/Private,Yes
Kerala,Alappuzha,Jubilee Memorial Hospital,,,,Jubilee Memorial Hospital,,,,,,689573,"Malayalam, English",Paid/Private,Yes
Kerala,Alappuzha,Lourdes Matha Hospital,,,,Lourdes Matha Hospital,,,,,,689573,"Malayalam, English",Paid/Private,Yes
Kerala,Alappuzha,Maha Jublee Memorial Hospital,,,,Maha Jublee Memorial Hospital,,,,,,689573,"Malayalam, English",Paid/Private,Yes
Kerala,Alappuzha,Lourdes Hospital,,,,Lourdes Hospital,,,,,,689595,"Malayalam, English",Paid/Private,Yes
Kerala,Alappuzha,Gems Hospital,,,,Gems Hospital,,,,,,690101,"Malayalam, English",Paid/Private,Yes
Kerala,Alappuzha,"P.M. Hospital, Mavelikara",,,,"P.M. Hospital, Mavelikara",,,,,,690101,"Malayalam, English",Paid/Private,Yes
Kerala,Alappuzha,Philip Memorial Hospital,,,,Philip Memorial Hospital,,,,,,690101,"Malayalam, English",Paid/Private,Yes
Kerala,Alappuzha,Sovereign Gems Hospital,,,,Sovereign Gems Hospital,,,,,,690101,"Malayalam, English",Paid/Private,Yes
Kerala,Alappuzha,Vrindavan Ayurveda Nursing Home,,,,Vrindavan Ayurveda Nursing Home,,,,,,690101,"Malayalam, English",Paid/Private,Yes
Kerala,Alappuzha,Sree Kanta Puram Hospital,,,,Sree Kanta Puram Hospital,,,,,,690103,"Malayalam, English",Paid/Private,Yes
Kerala,Alappuzha,Srikantapuram Hospital (Skp Hospital),,,,Srikantapuram Hospital (Skp Hospital),,,,,,690103,"Malayalam, English",Paid/Private,Yes
Kerala,Alappuzha,V.S.M.Hospital,,,,V.S.M.Hospital,,,,,,690103,"Malayalam, English",Paid/Private,Yes
Kerala,Alappuzha,Ahalia Foundation Eye Hospital,,,,Ahalia Foundation Eye Hospital,,,,,,690502,"Malayalam, English",Paid/Private,Yes
Kerala,Alappuzha,Christos Hospital,,,,Christos Hospital,,,,,,690502,"Malayalam, English",Paid/Private,Yes
Kerala,Alappuzha,Deepam Hospital Tsunami Project Only),,,,Deepam Hospital Tsunami Project Only),,,,,,690502,"Malayalam, English",Paid/Private,Yes
Kerala,Alappuzha,Ebenezer Hospital,,,,Ebenezer Hospital,,,,,,690502,"Malayalam, English",Paid/Private,Yes
Kerala,Alappuzha,J J Hospital,,,,J J Hospital,,,,,,690502,"Malayalam, English",Paid/Private,Yes
Kerala,Alappuzha,Kayamkulam Medical Trust,,,,Kayamkulam Medical Trust,,,,,,690502,"Malayalam, English",Paid/Private,Yes
Kerala,Alappuzha,Medical Trust Hospital (Tsunami Project Only),,,,Medical Trust Hospital (Tsunami Project Only),,,,,,690502,"Malayalam, English",Paid/Private,Yes
Kerala,Alappuzha,P.K.Kunju Sahib Memorial Taluk Hospital,,,,P.K.Kunju Sahib Memorial Taluk Hospital,,,,,,690502,"Malayalam, English",Paid/Private,Yes
Kerala,Alappuzha,S G Ayurveda Chikilasalayam,,,,S G Ayurveda Chikilasalayam,,,,,,690502,"Malayalam, English",Paid/Private,Yes
Kerala,Alappuzha,Smc Hospital (Tsunami Project Only),,,,Smc Hospital (Tsunami Project Only),,,,,,690506,"Malayalam, English",Paid/Private,Yes
Kerala,Alappuzha,Sanjivani Multi-Speciality Hospital,,,,Sanjivani Multi-Speciality Hospital,,,,,,690509,"Malayalam, English",Paid/Private,Yes
Kerala,Alappuzha,Hi -Care Medical Center,,,,Hi -Care Medical Center,,,,,,690511,"Malayalam, English",Paid/Private,Yes
Kerala,Alappuzha,Chaithanya Eye Hospital,,,,Chaithanya Eye Hospital,,,,,,690514,"Malayalam, English",Paid/Private,Yes
Kerala,Alappuzha,Deepa Hospital,,,,Deepa Hospital,,,,,,690514,"Malayalam, English",Paid/Private,Yes
Kerala,Alappuzha,Huda Trust,,,,Huda Trust,,,,,,690514,"Malayalam, English",Paid/Private,Yes
Kerala,Alappuzha,Elite Hospital,,,,Elite Hospital,,,,,,690516,"Malayalam, English",Paid/Private,Yes
Kerala,Alappuzha,Sree Ramakrishna Pharmacy-Karthikappally-Kerala,,,,Sree Ramakrishna Pharmacy-Karthikappally-Kerala,,,,,,690532,"Malayalam, English",Paid/Private,Yes
Kerala,Alappuzha,"T.D Medical College, Alappuzha",Public/ Government,Hospital,Allopathic,"T.D Medical College, Alappuzha",,,,,www.tdmcalappuzha.org,688005,"Malayalam, English",Free/Low Cost,Yes
Kerala,Ernakulam,V.G.Saraf Memorial Hospital\n,Private,Hospital,Allopathic,Urology\nOrthopedics\nGeneral Surgery\nGynaecology\nLaparoscopic Surgery\nPlastic Surgery\nENT\nOphthalmology\nPediatrics\nAnesthesiology\nDental and Maxillo-facial surgery\n,,,,,http://vgsarafhospital.com/,682016,"Malayalam, English",Paid/Private,Yes
Kerala,Ernakulam,Arya Vaidya Sala Kottakkal,,,,Arya Vaidya Sala Kottakkal,,,,,,682001,"Malayalam, English",Paid/Private,Yes
Kerala,Ernakulam,R.C.P.M Hospital,,,,R.C.P.M Hospital,,,,,,682001,"Malayalam, English",Paid/Private,Yes
Kerala,Ernakulam,Bishop Alappatt Mission Hospital,,,,Bishop Alappatt Mission Hospital,,,,,,682002,"Malayalam, English",Paid/Private,Yes
Kerala,Ernakulam,Goutham Hospital,,,,Goutham Hospital,,,,,,682002,"Malayalam, English",Paid/Private,Yes
Kerala,Ernakulam,West Side Hospital Pvt Ltd,,,,West Side Hospital Pvt Ltd,,,,,,682002,"Malayalam, English",Paid/Private,Yes
Kerala,Ernakulam,Jesus Hospital,,,,Jesus Hospital,,,,,,682005,"Malayalam, English",Paid/Private,Yes
Kerala,Ernakulam,K P M Eye Hospital,,,,K P M Eye Hospital,,,,,,682005,"Malayalam, English",Paid/Private,Yes
Kerala,Ernakulam,Laxmi Hospital,,,,Laxmi Hospital,,,,,,682005,"Malayalam, English",Paid/Private,Yes
Kerala,Ernakulam,Fathima Hospital,,,,Fathima Hospital,,,,,,682006,"Malayalam, English",Paid/Private,Yes
Kerala,Ernakulam,Our Lady Hospital,,,,Our Lady Hospital,,,,,,682006,"Malayalam, English",Paid/Private,Yes
Kerala,Ernakulam,Gautham Hospital,,,,Gautham Hospital,,,,,,682008,"Malayalam, English",Paid/Private,Yes
Kerala,Ernakulam,Chaitanya Eye Hospital and Research Instt,,,,Chaitanya Eye Hospital and Research Instt,,,,,,682011,"Malayalam, English",Paid/Private,Yes
Kerala,Ernakulam,Dhanya Mission Hospital Potta,,,,Dhanya Mission Hospital Potta,,,,,,682011,"Malayalam, English",Paid/Private,Yes
Kerala,Ernakulam,Dr Kunhalus Nursing Home,,,,Dr Kunhalus Nursing Home,,,,,,682011,"Malayalam, English",Paid/Private,Yes
Kerala,Ernakulam,General Hospital,,,,General Hospital,,,,,,682011,"Malayalam, English",Paid/Private,Yes
Kerala,Ernakulam,Krishna Hospital,,,,Krishna Hospital,,,,,,682011,"Malayalam, English",Paid/Private,Yes
Kerala,Ernakulam,Sri Dwaraka Sai Childrens Hospital,,,,Sri Dwaraka Sai Childrens Hospital,,,,,,682011,"Malayalam, English",Paid/Private,Yes
Kerala,Ernakulam,Susrusha Nursing Home-Cochin,,,,Susrusha Nursing Home-Cochin,,,,,,682011,"Malayalam, English",Paid/Private,Yes
Kerala,Ernakulam,Lourdes Hospital,,,,Lourdes Hospital,,,,,,682012,"Malayalam, English",Paid/Private,Yes
Kerala,Ernakulam,Vasan Eye Care Hospital,,,,Vasan Eye Care Hospital,,,,,,682015,"Malayalam, English",Paid/Private,Yes
Kerala,Ernakulam,Aiswarya Clinic,,,,Aiswarya Clinic,,,,,,682016,"Malayalam, English",Paid/Private,Yes
Kerala,Ernakulam,Chaithanya Ent Hospital,,,,Chaithanya Ent Hospital,,,,,,682016,"Malayalam, English",Paid/Private,Yes
Kerala,Ernakulam,City Hospital,,,,City Hospital,,,,,,682016,"Malayalam, English",Paid/Private,Yes
Kerala,Ernakulam,Cochin Hospital,,,,Cochin Hospital,,,,,,682016,"Malayalam, English",Paid/Private,Yes
Kerala,Ernakulam,Medical Trust Hospital,,,,Medical Trust Hospital,,,,,,682016,"Malayalam, English",Paid/Private,Yes
Kerala,Ernakulam,V. G. Saraf Memorial Hospital Pvt. Ltd.,,,,V. G. Saraf Memorial Hospital Pvt. Ltd.,,,,,,682016,"Malayalam, English",Paid/Private,Yes
Kerala,Ernakulam,Alpha Ent Head and Neck Research Insititute and Hospital,,,,Alpha Ent Head and Neck Research Insititute and Hospital,,,,,,682017,"Malayalam, English",Paid/Private,Yes
Kerala,Ernakulam,Focus Eye Hospital,,,,Focus Eye Hospital,,,,,,682017,"Malayalam, English",Paid/Private,Yes
Kerala,Ernakulam,P V S Memorial Hospital Ltd,,,,P V S Memorial Hospital Ltd,,,,,,682017,"Malayalam, English",Paid/Private,Yes
Kerala,Ernakulam,Paul`S Hospital,,,,Paul`S Hospital,,,,,,682017,"Malayalam, English",Paid/Private,Yes
Kerala,Ernakulam,Sree Sankara Ayurveda Hospital,,,,Sree Sankara Ayurveda Hospital,,,,,,682017,"Malayalam, English",Paid/Private,Yes
Kerala,Ernakulam,Dr. D Souza Ent Clinic and Nursing Home,,,,Dr. D Souza Ent Clinic and Nursing Home,,,,,,682018,"Malayalam, English",Paid/Private,Yes
Kerala,Ernakulam,Lisia Medical Institutions,,,,Lisia Medical Institutions,,,,,,682018,"Malayalam, English",Paid/Private,Yes
Kerala,Ernakulam,Lisie Hospital,,,,Lisie Hospital,,,,,,682018,"Malayalam, English",Paid/Private,Yes
Kerala,Ernakulam,Muthoot Medical Center Pvt Ltd,,,,Muthoot Medical Center Pvt Ltd,,,,,,682018,"Malayalam, English",Paid/Private,Yes
Kerala,Ernakulam,P.N.V.M. Hospital and Research Centre,,,,P.N.V.M. Hospital and Research Centre,,,,,,682018,"Malayalam, English",Paid/Private,Yes
Kerala,Ernakulam,Specialists Hospital,,,,Specialists Hospital,,,,,,682018,"Malayalam, English",Paid/Private,Yes
Kerala,Ernakulam,Sree Sudheendra Medical Mission,,,,Sree Sudheendra Medical Mission,,,,,,682018,"Malayalam, English",Paid/Private,Yes
Kerala,Ernakulam,Vijaya Hospital,,,,Vijaya Hospital,,,,,,682018,"Malayalam, English",Paid/Private,Yes
Kerala,Ernakulam,Westend Eye Hospitals,,,,Westend Eye Hospitals,,,,,,682018,"Malayalam, English",Paid/Private,Yes
Kerala,Ernakulam,Dr. Joys Hospital For Women And Children,,,,Dr. Joys Hospital For Women And Children,,,,,,682019,"Malayalam, English",Paid/Private,Yes
Kerala,Ernakulam,Lakeshore Hospital City Centre,,,,Lakeshore Hospital City Centre,,,,,,682019,"Malayalam, English",Paid/Private,Yes
Kerala,Ernakulam,Naivedya Ayurvedic Hospital and Research Centre,,,,Naivedya Ayurvedic Hospital and Research Centre,,,,,,682019,"Malayalam, English",Paid/Private,Yes
Kerala,Ernakulam,Ranjini Eye Care,,,,Ranjini Eye Care,,,,,,682019,"Malayalam, English",Paid/Private,Yes
Kerala,Ernakulam,Welcare Hospital,,,,Welcare Hospital,,,,,,682019,"Malayalam, English",Paid/Private,Yes
Kerala,Ernakulam,Akshaya Hospital,,,,Akshaya Hospital,,,,,,682020,"Malayalam, English",Paid/Private,Yes
Kerala,Ernakulam,Ayurvaid Hospital,,,,Ayurvaid Hospital,,,,,,682020,"Malayalam, English",Paid/Private,Yes
Kerala,Ernakulam,Giridhar Eye Institute,,,,Giridhar Eye Institute,,,,,,682020,"Malayalam, English",Paid/Private,Yes
Kerala,Ernakulam,Indira Gandhi Co-Operative Hospital,,,,Indira Gandhi Co-Operative Hospital,,,,,,682020,"Malayalam, English",Paid/Private,Yes
Kerala,Ernakulam,Komaranchath Urology Centre,,,,Komaranchath Urology Centre,,,,,,682020,"Malayalam, English",Paid/Private,Yes
Kerala,Ernakulam,Lotus Eye Care Hospital Ltd,,,,Lotus Eye Care Hospital Ltd,,,,,,682020,"Malayalam, English",Paid/Private,Yes
Kerala,Ernakulam,Silverline Hospital,,,,Silverline Hospital,,,,,,682020,"Malayalam, English",Paid/Private,Yes
Kerala,Ernakulam,Vallakkalil Hospital,,,,Vallakkalil Hospital,,,,,,682020,"Malayalam, English",Paid/Private,Yes
Kerala,Ernakulam,Vijaya Institute Of Medical Sciences,,,,Vijaya Institute Of Medical Sciences,,,,,,682020,"Malayalam, English",Paid/Private,Yes
Kerala,Ernakulam,Aditya Eye Hospital,,,,Aditya Eye Hospital,,,,,,682021,"Malayalam, English",Paid/Private,Yes
Kerala,Ernakulam,Vijayalakshmi Medical Centre,,,,Vijayalakshmi Medical Centre,,,,,,682021,"Malayalam, English",Paid/Private,Yes
Kerala,Ernakulam,Alexander Eye Center (Unit Of Kelman Health First Hospital Network Pvt Ltd),,,,Alexander Eye Center (Unit Of Kelman Health First Hospital Network Pvt Ltd),,,,,,682024,"Malayalam, English",Paid/Private,Yes
Kerala,Ernakulam,Amrita Institute Of Medical Sciences And Research Centre,,,,Amrita Institute Of Medical Sciences And Research Centre,,,,,,682024,"Malayalam, English",Paid/Private,Yes
Kerala,Ernakulam,Cochin Spine Hospital,,,,Cochin Spine Hospital,,,,,,682024,"Malayalam, English",Paid/Private,Yes
Kerala,Ernakulam,Dr. Promodus Institute Of Sexual and Marital Health,,,,Dr. Promodus Institute Of Sexual and Marital Health,,,,,,682024,"Malayalam, English",Paid/Private,Yes
Kerala,Ernakulam,Evershine Hospital,,,,Evershine Hospital,,,,,,682024,"Malayalam, English",Paid/Private,Yes
Kerala,Ernakulam,Mar Augustin Jubilee Hospital,,,,Mar Augustin Jubilee Hospital,,,,,,682024,"Malayalam, English",Paid/Private,Yes
Kerala,Ernakulam,Punarnava Ayurveda Hospital Ltd Kerla,,,,Punarnava Ayurveda Hospital Ltd Kerla,,,,,,682024,"Malayalam, English",Paid/Private,Yes
Kerala,Ernakulam,Indira Gandhi Memorial Hospital,,,,Indira Gandhi Memorial Hospital,,,,,,682025,"Malayalam, English",Paid/Private,Yes
Kerala,Ernakulam,Kumar International Centre,,,,Kumar International Centre,,,,,,682025,"Malayalam, English",Paid/Private,Yes
Kerala,Ernakulam,Suburban Hospital,,,,Suburban Hospital,,,,,,682025,"Malayalam, English",Paid/Private,Yes
Kerala,Ernakulam,Vasan Eye Care Hospital,,,,Vasan Eye Care Hospital,,,,,,682025,"Malayalam, English",Paid/Private,Yes
Kerala,Ernakulam,Government Ayurveda Hospital,Public/ Government,,,Government Ayurveda Hospital,,,,,,682027,"Malayalam, English",Free/Low Cost,Yes
Kerala,Ernakulam,Ernakulam Medical Centre,,,,Ernakulam Medical Centre,,,,,,682028,"Malayalam, English",Paid/Private,Yes
Kerala,Ernakulam,Gouri Sankar Nursing Home,,,,Gouri Sankar Nursing Home,,,,,,682030,"Malayalam, English",Paid/Private,Yes
Kerala,Ernakulam,Sunrise Hospital,,,,Sunrise Hospital,,,,,,682030,"Malayalam, English",Paid/Private,Yes
Kerala,Ernakulam,Susruta Eye Hospital,,,,Susruta Eye Hospital,,,,,,682030,"Malayalam, English",Paid/Private,Yes
Kerala,Ernakulam,Thrikkakara Grama Panchayat Co-Operative Hospital,,,,Thrikkakara Grama Panchayat Co-Operative Hospital,,,,,,682030,"Malayalam, English",Paid/Private,Yes
Kerala,Ernakulam,Cimar Cochin,,,,Cimar Cochin,,,,,,682031,"Malayalam, English",Paid/Private,Yes
Kerala,Ernakulam,Noushad Ent Hospital and Research Centre,,,,Noushad Ent Hospital and Research Centre,,,,,,682032,"Malayalam, English",Paid/Private,Yes
Kerala,Ernakulam,Kims Hospital And Surgical Center,,,,Kims Hospital And Surgical Center,,,,,,682033,"Malayalam, English",Paid/Private,Yes
Kerala,Ernakulam,Al Shifa Super Specialty Hospital,,,,Al Shifa Super Specialty Hospital,,,,,,682035,"Malayalam, English",Paid/Private,Yes
Kerala,Ernakulam,Ojus Clinic And Nursing Home,,,,Ojus Clinic And Nursing Home,,,,,,682035,"Malayalam, English",Paid/Private,Yes
Kerala,Ernakulam,Sarada Nursing Home,,,,Sarada Nursing Home,,,,,,682035,"Malayalam, English",Paid/Private,Yes
Kerala,Ernakulam,Lakeshore Hospital And Research Center Ltd,,,,Lakeshore Hospital And Research Center Ltd,,,,,,682040,"Malayalam, English",Paid/Private,Yes
Kerala,Ernakulam,Devi Hospital Pvt Ltd,,,,Devi Hospital Pvt Ltd,,,,,,682301,"Malayalam, English",Paid/Private,Yes
Kerala,Ernakulam,R C M Eye Hospital,,,,R C M Eye Hospital,,,,,,682301,"Malayalam, English",Paid/Private,Yes
Kerala,Ernakulam,Roshan Eye Care Hospital,,,,Roshan Eye Care Hospital,,,,,,682301,"Malayalam, English",Paid/Private,Yes
Kerala,Ernakulam,Sree Agasthya Medical Centre,,,,Sree Agasthya Medical Centre,,,,,,682301,"Malayalam, English",Paid/Private,Yes
Kerala,Ernakulam,Verma Medical Clinic,,,,Verma Medical Clinic,,,,,,682301,"Malayalam, English",Paid/Private,Yes
Kerala,Ernakulam,Vijaya Kumara Menon Hospital,,,,Vijaya Kumara Menon Hospital,,,,,,682301,"Malayalam, English",Paid/Private,Yes
Kerala,Ernakulam,P.S. Mission Hospital,,,,P.S. Mission Hospital,,,,,,682304,"Malayalam, English",Paid/Private,Yes
Kerala,Ernakulam,Perpetual Succour Mission Hospital,,,,Perpetual Succour Mission Hospital,,,,,,682304,"Malayalam, English",Paid/Private,Yes
Kerala,Ernakulam,Cochin Ariya Vaidya Sala,,,,Cochin Ariya Vaidya Sala,,,,,,682306,"Malayalam, English",Paid/Private,Yes
Kerala,Ernakulam,Lakshmi Hospital Rural Health Centre,,,,Lakshmi Hospital Rural Health Centre,,,,,,682311,"Malayalam, English",Paid/Private,Yes
Kerala,Ernakulam,M.O.S.C. Medical College Hospital Kolenchery,,,,M.O.S.C. Medical College Hospital Kolenchery,,,,,,682311,"Malayalam, English",Paid/Private,Yes
Kerala,Ernakulam,Malankara Orthodox,,,,Malankara Orthodox,,,,,,682311,"Malayalam, English",Paid/Private,Yes
Kerala,Ernakulam,Sir Dorabji Tata Trust Aided Hospital ( S D T T A ),,,,Sir Dorabji Tata Trust Aided Hospital ( S D T T A ),,,,,,682312,"Malayalam, English",Paid/Private,Yes
Kerala,Ernakulam,A.P.Varkey Mission Hospital,,,,A.P.Varkey Mission Hospital,,,,,,682313,"Malayalam, English",Paid/Private,Yes
Kerala,Ernakulam,Hail Mary Hospital,,,,Hail Mary Hospital,,,,,,682314,"Malayalam, English",Paid/Private,Yes
Kerala,Ernakulam,Varsha Nursing Home,,,,Varsha Nursing Home,,,,,,682314,"Malayalam, English",Paid/Private,Yes
Kerala,Ernakulam,St.Vincent De-Paul Hospital,,,,St.Vincent De-Paul Hospital,,,,,,682501,"Malayalam, English",Paid/Private,Yes
Kerala,Ernakulam,Bama Spine and Pain Siddha Clinic,,,,Bama Spine and Pain Siddha Clinic,,,,,,682505,"Malayalam, English",Paid/Private,Yes
Kerala,Ernakulam,Kristu Jayanti Hospital,,,,Kristu Jayanti Hospital,,,,,,682505,"Malayalam, English",Paid/Private,Yes
Kerala,Ernakulam,Jishy Hospital,,,,Jishy Hospital,,,,,,682507,"Malayalam, English",Paid/Private,Yes
Kerala,Ernakulam,Anwar Memorial Hospital,,,,Anwar Memorial Hospital,,,,,,683101,"Malayalam, English",Paid/Private,Yes
Kerala,Ernakulam,Arogyalayam Hospital,,,,Arogyalayam Hospital,,,,,,683101,"Malayalam, English",Paid/Private,Yes
Kerala,Ernakulam,Ayurvaid Hospital,,,,Ayurvaid Hospital,,,,,,683101,"Malayalam, English",Paid/Private,Yes
Kerala,Ernakulam,Carmel Hospital,,,,Carmel Hospital,,,,,,683101,"Malayalam, English",Paid/Private,Yes
Kerala,Ernakulam,Dr. C. K. P Hospital,,,,Dr. C. K. P Hospital,,,,,,683101,"Malayalam, English",Paid/Private,Yes
Kerala,Ernakulam,Dr. Tony's Super Speciality Eye Institute and Lasik Centre,,,,Dr. Tony's Super Speciality Eye Institute and Lasik Centre,,,,,,683101,"Malayalam, English",Paid/Private,Yes
Kerala,Ernakulam,Gyno Speciality Hospital,,,,Gyno Speciality Hospital,,,,,,683101,"Malayalam, English",Paid/Private,Yes
Kerala,Ernakulam,K M K Hospital,,,,K M K Hospital,,,,,,683101,"Malayalam, English",Paid/Private,Yes
Kerala,Ernakulam,Karothukuzhi Hospital Pvt Ltd,,,,Karothukuzhi Hospital Pvt Ltd,,,,,,683101,"Malayalam, English",Paid/Private,Yes
Kerala,Ernakulam,Lakshmi Hospital,,,,Lakshmi Hospital,,,,,,683101,"Malayalam, English",Paid/Private,Yes
Kerala,Ernakulam,Najath Hospital,,,,Najath Hospital,,,,,,683101,"Malayalam, English",Paid/Private,Yes
Kerala,Ernakulam,S.V. Pharmacy and Nursing Home,,,,S.V. Pharmacy and Nursing Home,,,,,,683101,"Malayalam, English",Paid/Private,Yes
Kerala,Ernakulam,Co-Operative Medical College Hospital,,,,Co-Operative Medical College Hospital,,,,,,683104,"Malayalam, English",Paid/Private,Yes
Kerala,Ernakulam,Sarathy Ayurvedic Hospital,,,,Sarathy Ayurvedic Hospital,,,,,,683110,"Malayalam, English",Paid/Private,Yes
Kerala,Ernakulam,Jnm Lakshmi Hospital,,,,Jnm Lakshmi Hospital,,,,,,683501,"Malayalam, English",Paid/Private,Yes
Kerala,Ernakulam,St Josephs Hospital Trust,,,,St Josephs Hospital Trust,,,,,,683501,"Malayalam, English",Paid/Private,Yes
Kerala,Ernakulam,Ayurveda Nursing Home,,,,Ayurveda Nursing Home,,,,,,683511,"Malayalam, English",Paid/Private,Yes
Kerala,Ernakulam,Chaitanya Nursing Home,,,,Chaitanya Nursing Home,,,,,,683513,"Malayalam, English",Paid/Private,Yes
Kerala,Ernakulam,Don Bosco Hospital,,,,Don Bosco Hospital,,,,,,683513,"Malayalam, English",Paid/Private,Yes
Kerala,Ernakulam,Santhi Clinic and Hospital,,,,Santhi Clinic and Hospital,,,,,,683513,"Malayalam, English",Paid/Private,Yes
Kerala,Ernakulam,Navabharath Medical Center,,,,Navabharath Medical Center,,,,,,683515,"Malayalam, English",Paid/Private,Yes
Kerala,Ernakulam,Bharath Rural Hospital and Training Centre,,,,Bharath Rural Hospital and Training Centre,,,,,,683516,"Malayalam, English",Paid/Private,Yes
Kerala,Ernakulam,Shajy Hospital,,,,Shajy Hospital,,,,,,683516,"Malayalam, English",Paid/Private,Yes
Kerala,Ernakulam,Ub Trust Hospital and Diagnostic Centre,,,,Ub Trust Hospital and Diagnostic Centre,,,,,,683517,"Malayalam, English",Paid/Private,Yes
Kerala,Ernakulam,Little Flower Hospital Annex,,,,Little Flower Hospital Annex,,,,,,683518,"Malayalam, English",Paid/Private,Yes
Kerala,Ernakulam,Parathuvayalil Hospital,,,,Parathuvayalil Hospital,,,,,,683541,"Malayalam, English",Paid/Private,Yes
Kerala,Ernakulam,Lakshmi Hospital,,,,Lakshmi Hospital,,,,,,683542,"Malayalam, English",Paid/Private,Yes
Kerala,Ernakulam,Luke Memorial Eye Hospital,,,,Luke Memorial Eye Hospital,,,,,,683542,"Malayalam, English",Paid/Private,Yes
Kerala,Ernakulam,M.V. Joseph Memorial Hospital,,,,M.V. Joseph Memorial Hospital,,,,,,683542,"Malayalam, English",Paid/Private,Yes
Kerala,Ernakulam,S. N. Mission Hospital,,,,S. N. Mission Hospital,,,,,,683542,"Malayalam, English",Paid/Private,Yes
Kerala,Ernakulam,Sanjoe Hospital,,,,Sanjoe Hospital,,,,,,683542,"Malayalam, English",Paid/Private,Yes
Kerala,Ernakulam,V.M.M Ospital,,,,V.M.M Ospital,,,,,,683542,"Malayalam, English",Paid/Private,Yes
Kerala,Ernakulam,Vathiyayath Hospital,,,,Vathiyayath Hospital,,,,,,683542,"Malayalam, English",Paid/Private,Yes
Kerala,Ernakulam,Ayswarya Hospital,,,,Ayswarya Hospital,,,,,,683561,"Malayalam, English",Paid/Private,Yes
Kerala,Ernakulam,Thaqdees Hospital Limited,,,,Thaqdees Hospital Limited,,,,,,683561,"Malayalam, English",Paid/Private,Yes
Kerala,Ernakulam,Attikal Devi Institute Of Medical Sciences Ltd,,,,Attikal Devi Institute Of Medical Sciences Ltd,,,,,,683562,"Malayalam, English",Paid/Private,Yes
Kerala,Ernakulam,General Clinic,,,,General Clinic,,,,,,683562,"Malayalam, English",Paid/Private,Yes
Kerala,Ernakulam,Samaritan Hospital,,,,Samaritan Hospital,,,,,,683562,"Malayalam, English",Paid/Private,Yes
Kerala,Ernakulam,Kg Hospital,,,,Kg Hospital,,,,,,683572,"Malayalam, English",Paid/Private,Yes
Kerala,Ernakulam,Little Flower Hospital And Research Centre,,,,Little Flower Hospital And Research Centre,,,,,,683572,"Malayalam, English",Paid/Private,Yes
Kerala,Ernakulam,Madonna Medical Centre,,,,Madonna Medical Centre,,,,,,683572,"Malayalam, English",Paid/Private,Yes
Kerala,Ernakulam,P.M.M. Hsopital,,,,P.M.M. Hsopital,,,,,,683574,"Malayalam, English",Paid/Private,Yes
Kerala,Ernakulam,St.Thomas Hospital,,,,St.Thomas Hospital,,,,,,683574,"Malayalam, English",Paid/Private,Yes
Kerala,Ernakulam,Vimala Hospital,,,,Vimala Hospital,,,,,,683575,"Malayalam, English",Paid/Private,Yes
Kerala,Ernakulam,Alphonsa Hospital Karukutty,,,,Alphonsa Hospital Karukutty,,,,,,683576,"Malayalam, English",Paid/Private,Yes
Kerala,Ernakulam,M A G J Hospital,,,,M A G J Hospital,,,,,,683577,"Malayalam, English",Paid/Private,Yes
Kerala,Ernakulam,St. Philomina`S Mission Hospital,,,,St. Philomina`S Mission Hospital,,,,,,683577,"Malayalam, English",Paid/Private,Yes
Kerala,Ernakulam,Dr. Pakkai Memorial Hospital,,,,Dr. Pakkai Memorial Hospital,,,,,,683579,"Malayalam, English",Paid/Private,Yes
Kerala,Ernakulam,Karuna Hospital,,,,Karuna Hospital,,,,,,683581,"Malayalam, English",Paid/Private,Yes
Kerala,Ernakulam,Medical Centre,,,,Medical Centre,,,,,,683581,"Malayalam, English",Paid/Private,Yes
Kerala,Ernakulam,Kerala Ayurveda Hospital,,,,Kerala Ayurveda Hospital,,,,,,683585,"Malayalam, English",Paid/Private,Yes
Kerala,Ernakulam,Purnagram,,,,Purnagram,,,,,,683587,"Malayalam, English",Paid/Private,Yes
Kerala,Ernakulam,Sree Narayana Institute Of Medical Sciences,,,,Sree Narayana Institute Of Medical Sciences,,,,,,683594,"Malayalam, English",Paid/Private,Yes
Kerala,Ernakulam,Ahalia Foundation Eye Hospital,,,,Ahalia Foundation Eye Hospital,,,,,,686661,"Malayalam, English",Paid/Private,Yes
Kerala,Ernakulam,Nedumchalil Trust Hospital,,,,Nedumchalil Trust Hospital,,,,,,686661,"Malayalam, English",Paid/Private,Yes
Kerala,Ernakulam,"Nirmala Medical Centre,",,,,"Nirmala Medical Centre,",,,,,,686661,"Malayalam, English",Paid/Private,Yes
Kerala,Ernakulam,Sabine Hospital and Research Centre,,,,Sabine Hospital and Research Centre,,,,,,686661,"Malayalam, English",Paid/Private,Yes
Kerala,Ernakulam,St.George Hospital,,,,St.George Hospital,,,,,,686661,"Malayalam, English",Paid/Private,Yes
Kerala,Ernakulam,Ushus Hospital - Muvattupuzha,,,,Ushus Hospital - Muvattupuzha,,,,,,686661,"Malayalam, English",Paid/Private,Yes
Kerala,Ernakulam,Ayurvedic Eye Hospital and Rescarch Center,,,,Ayurvedic Eye Hospital and Rescarch Center,,,,,,686662,"Malayalam, English",Paid/Private,Yes
Kerala,Ernakulam,Deva Matha Hospital,,,,Deva Matha Hospital,,,,,,686662,"Malayalam, English",Paid/Private,Yes
Kerala,Ernakulam,Naynam Ayurvedic Eye Hospital,,,,Naynam Ayurvedic Eye Hospital,,,,,,686662,"Malayalam, English",Paid/Private,Yes
Kerala,Ernakulam,Sree Dareeyam,,,,Sree Dareeyam,,,,,,686662,"Malayalam, English",Paid/Private,Yes
Kerala,Ernakulam,Chari Hospital,,,,Chari Hospital,,,,,,686669,"Malayalam, English",Paid/Private,Yes
Kerala,Ernakulam,Muvattupuzha Medical Centre,,,,Muvattupuzha Medical Centre,,,,,,686673,"Malayalam, English",Paid/Private,Yes
Kerala,Ernakulam,Nedumchalil Hospital,,,,Nedumchalil Hospital,,,,,,686673,"Malayalam, English",Paid/Private,Yes
Kerala,Ernakulam,Women and Childrens Hospital,,,,Women and Childrens Hospital,,,,,,686673,"Malayalam, English",Paid/Private,Yes
Kerala,Ernakulam,Mar Baselios Medial Mission Hospital,,,,Mar Baselios Medial Mission Hospital,,,,,,686691,"Malayalam, English",Paid/Private,Yes
Kerala,Ernakulam,Nangelil Hospital,,,,Nangelil Hospital,,,,,,686691,"Malayalam, English",Paid/Private,Yes
Kerala,Ernakulam,St.Joseph`S Hospital,,,,St.Joseph`S Hospital,,,,,,686691,"Malayalam, English",Paid/Private,Yes
Kerala,Idukki,Chc Upputhara,,,,Chc Upputhara,,,,,,685505,"Malayalam, English",Paid/Private,Yes
Kerala,Idukki,Saro Hospital,,,,Saro Hospital,,,,,,685508,"Malayalam, English",Paid/Private,Yes
Kerala,Idukki,PHC Kumily,,,,PHC Kumily,,,,,,685509,"Malayalam, English",Paid/Private,Yes
Kerala,Idukki,P H C Centre,,,,P H C Centre,,,,,,685511,"Malayalam, English",Paid/Private,Yes
Kerala,Idukki,St Johns Hospital,,,,St Johns Hospital,,,,,,685515,"Malayalam, English",Paid/Private,Yes
Kerala,Idukki,Chc Vandiperiyar,,,,Chc Vandiperiyar,,,,,,685533,"Malayalam, English",Paid/Private,Yes
Kerala,Idukki,Chc Vandenmedu,,,,Chc Vandenmedu,,,,,,685551,"Malayalam, English",Paid/Private,Yes
Kerala,Idukki,Medical Trust Hospital,,,,Medical Trust Hospital,,,,,,685553,"Malayalam, English",Paid/Private,Yes
Kerala,Idukki,Morning Star Medical Centre,,,,Morning Star Medical Centre,,,,,,685561,"Malayalam, English",Paid/Private,Yes
Kerala,Idukki,Vijayaraja Hospital,,,,Vijayaraja Hospital,,,,,,685561,"Malayalam, English",Paid/Private,Yes
Kerala,Idukki,Chc Chithirapuram,,,,Chc Chithirapuram,,,,,,685565,"Malayalam, English",Paid/Private,Yes
Kerala,Idukki,Chc Rajakkad,,,,Chc Rajakkad,,,,,,685566,"Malayalam, English",Paid/Private,Yes
Kerala,Idukki,St Johns Medical Centre,,,,St Johns Medical Centre,,,,,,685566,"Malayalam, English",Paid/Private,Yes
Kerala,Idukki,Chc Purapuzha,,,,Chc Purapuzha,,,,,,685583,"Malayalam, English",Paid/Private,Yes
Kerala,Idukki,Archana Hospital,,,,Archana Hospital,,,,,,685584,"Malayalam, English",Paid/Private,Yes
Kerala,Idukki,Chazhikattu Hospital Pvt Ltd,,,,Chazhikattu Hospital Pvt Ltd,,,,,,685584,"Malayalam, English",Paid/Private,Yes
Kerala,Idukki,Mount Sinai Hospital,,,,Mount Sinai Hospital,,,,,,685584,"Malayalam, English",Paid/Private,Yes
Kerala,Idukki,S.H. Hospital,,,,S.H. Hospital,,,,,,685584,"Malayalam, English",Paid/Private,Yes
Kerala,Idukki,St.Mary Hospitals,,,,St.Mary Hospitals,,,,,,685584,"Malayalam, English",Paid/Private,Yes
Kerala,Idukki,Chc Muttom,,,,Chc Muttom,,,,,,685587,"Malayalam, English",Paid/Private,Yes
Kerala,Idukki,Chc Kanjikuzhi,,,,Chc Kanjikuzhi,,,,,,685602,"Malayalam, English",Paid/Private,Yes
Kerala,Idukki,Chc Vathikudi,,,,Chc Vathikudi,,,,,,685604,"Malayalam, English",Paid/Private,Yes
Kerala,Idukki,Holy Family Hospital,,,,Holy Family Hospital,,,,,,685605,"Malayalam, English",Paid/Private,Yes
Kerala,Idukki,General Hospital,,,,General Hospital,,,,,,685612,"Malayalam, English",Paid/Private,Yes
Kerala,Idukki,Tata Global Beverages Limited General Hospital,,,,Tata Global Beverages Limited General Hospital,,,,,,685612,"Malayalam, English",Paid/Private,Yes
Kerala,Kannur,Dr. Oommen Eye Hospital,,,,Dr. Oommen Eye Hospital,,,,,,670001,"Malayalam, English",Paid/Private,Yes
Kerala,Kannur,Sevana Hospital and Research Centre Pvt Ltd,,,,Sevana Hospital and Research Centre Pvt Ltd,,,,,,670001,"Malayalam, English",Paid/Private,Yes
Kerala,Kannur,Vasan Eye Care Hospital,,,,Vasan Eye Care Hospital,,,,,,670001,"Malayalam, English",Paid/Private,Yes
Kerala,Kannur,A K G Memorial Co Operative Hospital,,,,A K G Memorial Co Operative Hospital,,,,,,670002,"Malayalam, English",Paid/Private,Yes
Kerala,Kannur,Ashoka Hospital,,,,Ashoka Hospital,,,,,,670002,"Malayalam, English",Paid/Private,Yes
Kerala,Kannur,Dhanalakshimi Hospital,,,,Dhanalakshimi Hospital,,,,,,670002,"Malayalam, English",Paid/Private,Yes
Kerala,Kannur,Fatima Hospital,,,,Fatima Hospital,,,,,,670002,"Malayalam, English",Paid/Private,Yes
Kerala,Kannur,Kannur Co-Operative Hospital Society Limited,,,,Kannur Co-Operative Hospital Society Limited,,,,,,670002,"Malayalam, English",Paid/Private,Yes
Kerala,Kannur,Madhan Rao Scindia Hospital,,,,Madhan Rao Scindia Hospital,,,,,,670002,"Malayalam, English",Paid/Private,Yes
Kerala,Kannur,Speciality Hospital,,,,Speciality Hospital,,,,,,670002,"Malayalam, English",Paid/Private,Yes
Kerala,Kannur,Jyothis Eye Care,,,,Jyothis Eye Care,,,,,,670004,"Malayalam, English",Paid/Private,Yes
Kerala,Kannur,Koyili Hospital,,,,Koyili Hospital,,,,,,670004,"Malayalam, English",Paid/Private,Yes
Kerala,Kannur,"S.M,. Hospital;",,,,"S.M,. Hospital;",,,,,,670012,"Malayalam, English",Paid/Private,Yes
Kerala,Kannur,Comtrust Eye Care Hospital,,,,Comtrust Eye Care Hospital,,,,,,670101,"Malayalam, English",Paid/Private,Yes
Kerala,Kannur,Josgiri Hospital,,,,Josgiri Hospital,,,,,,670101,"Malayalam, English",Paid/Private,Yes
Kerala,Kannur,Santhigiri Nursing Home,,,,Santhigiri Nursing Home,,,,,,670101,"Malayalam, English",Paid/Private,Yes
Kerala,Kannur,Tellicherry Co Operative Hospital,,,,Tellicherry Co Operative Hospital,,,,,,670101,"Malayalam, English",Paid/Private,Yes
Kerala,Kannur,Thalassery Mission Hospital,,,,Thalassery Mission Hospital,,,,,,670101,"Malayalam, English",Paid/Private,Yes
Kerala,Kannur,Shemi Hospital,,,,Shemi Hospital,,,,,,670102,"Malayalam, English",Paid/Private,Yes
Kerala,Kannur,Indira Gandhi Co Operative Hospital,,,,Indira Gandhi Co Operative Hospital,,,,,,670103,"Malayalam, English",Paid/Private,Yes
Kerala,Kannur,Tely Medical Centre Ltd,,,,Tely Medical Centre Ltd,,,,,,670103,"Malayalam, English",Paid/Private,Yes
Kerala,Kannur,Kurumathur Arya Vaidya Sala and Nursing Home,,,,Kurumathur Arya Vaidya Sala and Nursing Home,,,,,,670141,"Malayalam, English",Paid/Private,Yes
Kerala,Kannur,Lourde Hospital,,,,Lourde Hospital,,,,,,670141,"Malayalam, English",Paid/Private,Yes
Kerala,Kannur,Rihan Child and Newborn Hospital,,,,Rihan Child and Newborn Hospital,,,,,,670141,"Malayalam, English",Paid/Private,Yes
Kerala,Kannur,Santhosh Hospital,,,,Santhosh Hospital,,,,,,670141,"Malayalam, English",Paid/Private,Yes
Kerala,Kannur,Taliparamba Co-Operative Hospital,,,,Taliparamba Co-Operative Hospital,,,,,,670141,"Malayalam, English",Paid/Private,Yes
Kerala,Kannur,Thaliparamba Nursing Home,,,,Thaliparamba Nursing Home,,,,,,670141,"Malayalam, English",Paid/Private,Yes
Kerala,Kannur,St.Martin De Porus Hospital,,,,St.Martin De Porus Hospital,,,,,,670301,"Malayalam, English",Paid/Private,Yes
Kerala,Kannur,Chc Payangadi,,,,Chc Payangadi,,,,,,670303,"Malayalam, English",Paid/Private,Yes
Kerala,Kannur,Bkm Memorial Hospital,,,,Bkm Memorial Hospital,,,,,,670307,"Malayalam, English",Paid/Private,Yes
Kerala,Kannur,Mukunda Hospital,,,,Mukunda Hospital,,,,,,670307,"Malayalam, English",Paid/Private,Yes
Kerala,Kannur,Payyanur Co-Operative Hospital,,,,Payyanur Co-Operative Hospital,,,,,,670307,"Malayalam, English",Paid/Private,Yes
Kerala,Kannur,Payyanur Medicare Center,,,,Payyanur Medicare Center,,,,,,670307,"Malayalam, English",Paid/Private,Yes
Kerala,Kannur,Saba Hospital,,,,Saba Hospital,,,,,,670307,"Malayalam, English",Paid/Private,Yes
Kerala,Kannur,Sredha Hospital,,,,Sredha Hospital,,,,,,670307,"Malayalam, English",Paid/Private,Yes
Kerala,Kannur,Chc Cheruthazam,,,,Chc Cheruthazam,,,,,,670501,"Malayalam, English",Paid/Private,Yes
Kerala,Kannur,Pariyaram Medical College Hospital,,,,Pariyaram Medical College Hospital,,,,,,670503,"Malayalam, English",Paid/Private,Yes
Kerala,Kannur,Chc Karivelloor,,,,Chc Karivelloor,,,,,,670521,"Malayalam, English",Paid/Private,Yes
Kerala,Kannur,Modern Multi Speciality Hospital,,,,Modern Multi Speciality Hospital,,,,,,670561,"Malayalam, English",Paid/Private,Yes
Kerala,Kannur,Parassinikkadavu Ayurveda Medical College,,,,Parassinikkadavu Ayurveda Medical College,,,,,,670563,"Malayalam, English",Paid/Private,Yes
Kerala,Kannur,WandC Hospital,,,,WandC Hospital,,,,,,670563,"Malayalam, English",Paid/Private,Yes
Kerala,Kannur,Carithas Hospital,,,,Carithas Hospital,,,,,,670571,"Malayalam, English",Paid/Private,Yes
Kerala,Kannur,St. Josephs Hospital,,,,St. Josephs Hospital,,,,,,670571,"Malayalam, English",Paid/Private,Yes
Kerala,Kannur,Chc Irikkur,,,,Chc Irikkur,,,,,,670593,"Malayalam, English",Paid/Private,Yes
Kerala,Kannur,Chc Mayyil,,,,Chc Mayyil,,,,,,670602,"Malayalam, English",Paid/Private,Yes
Kerala,Kannur,Kannur Medical College Hospital,,,,Kannur Medical College Hospital,,,,,,670611,"Malayalam, English",Paid/Private,Yes
Kerala,Kannur,Dhanwantare Heritage Ayurveda Centre,,,,Dhanwantare Heritage Ayurveda Centre,,,,,,670612,"Malayalam, English",Paid/Private,Yes
Kerala,Kannur,Mercy Hospital,,,,Mercy Hospital,,,,,,670633,"Malayalam, English",Paid/Private,Yes
Kerala,Kannur,Chokli Medical Centre,,,,Chokli Medical Centre,,,,,,670672,"Malayalam, English",Paid/Private,Yes
Kerala,Kannur,Erattu Hospital and Geriatric Care Centre,,,,Erattu Hospital and Geriatric Care Centre,,,,,,670675,"Malayalam, English",Paid/Private,Yes
Kerala,Kannur,Christu Raj Hospital,,,,Christu Raj Hospital,,,,,,670701,"Malayalam, English",Paid/Private,Yes
Kerala,Kannur,Chc Mattannur,,,,Chc Mattannur,,,,,,670702,"Malayalam, English",Paid/Private,Yes
Kerala,Kannur,Amala Multispeciality Hospital,,,,Amala Multispeciality Hospital,,,,,,670703,"Malayalam, English",Paid/Private,Yes
Kerala,Kannur,Community Health Center,,,,Community Health Center,,,,,,670703,"Malayalam, English",Paid/Private,Yes
Kerala,Kannur,Chc Pinarayi,,,,Chc Pinarayi,,,,,,670741,"Malayalam, English",Paid/Private,Yes
Kerala,Kannur,Pariyaram Medical College,Public/ Government,Hospital,Allopathic,Pariyaram Medical College,,,,,www.mcpariyaram.com/,670503,"Malayalam, English",Free/Low Cost,Yes
Kerala,Thiruvananthapuram,Dr.Somervell Memorial CSI Medical College,Public/ Government,Hospital,Allopathic,Dr.Somervell Memorial CSI Medical College,,,,,http://www.drsmcsimchk.org/,695504,"Malayalam, English",Free/Low Cost,Yes
Kerala,Kasaragod,Cherupuzha Medical Centre,,,,Cherupuzha Medical Centre,,,,,,670511,"Malayalam, English",Paid/Private,Yes
Kerala,Kasaragod,Carewell Hospital And Research Centre,,,,Carewell Hospital And Research Centre,,,,,,671121,"Malayalam, English",Paid/Private,Yes
Kerala,Kasaragod,E K Nayanar Memorial Co-Operative Hospital,,,,E K Nayanar Memorial Co-Operative Hospital,,,,,,671121,"Malayalam, English",Paid/Private,Yes
Kerala,Kasaragod,Institute Of Applied Dermatology,,,,Institute Of Applied Dermatology,,,,,,671121,"Malayalam, English",Paid/Private,Yes
Kerala,Kasaragod,K.A.H Memorial Hospital,,,,K.A.H Memorial Hospital,,,,,,671121,"Malayalam, English",Paid/Private,Yes
Kerala,Kasaragod,Kamath Medical Center,,,,Kamath Medical Center,,,,,,671121,"Malayalam, English",Paid/Private,Yes
Kerala,Kasaragod,Kasaragod Institute Of Medical Sciences,,,,Kasaragod Institute Of Medical Sciences,,,,,,671121,"Malayalam, English",Paid/Private,Yes
Kerala,Kasaragod,Mallya City Hospital,,,,Mallya City Hospital,,,,,,671121,"Malayalam, English",Paid/Private,Yes
Kerala,Kasaragod,Manipal Uma Hospital,,,,Manipal Uma Hospital,,,,,,671121,"Malayalam, English",Paid/Private,Yes
Kerala,Kasaragod,Thengana Medical Mission Hospital and Research Center,,,,Thengana Medical Mission Hospital and Research Center,,,,,,671121,"Malayalam, English",Paid/Private,Yes
Kerala,Kasaragod,United Hospital And Research Center,,,,United Hospital And Research Center,,,,,,671121,"Malayalam, English",Paid/Private,Yes
Kerala,Kasaragod,Malik Deenar Charitable Hospital,,,,Malik Deenar Charitable Hospital,,,,,,671122,"Malayalam, English",Paid/Private,Yes
Kerala,Kasaragod,Krishna Hospital,,,,Krishna Hospital,,,,,,671123,"Malayalam, English",Paid/Private,Yes
Kerala,Kasaragod,Unity Hospital,,,,Unity Hospital,,,,,,671313,"Malayalam, English",Paid/Private,Yes
Kerala,Kasaragod,N.K. Balakrishanan Memorial Charietable Hospital,,,,N.K. Balakrishanan Memorial Charietable Hospital,,,,,,671314,"Malayalam, English",Paid/Private,Yes
Kerala,Kasaragod,Thejaswini Co-Operative Hospital And Medical Resea,,,,Thejaswini Co-Operative Hospital And Medical Resea,,,,,,671314,"Malayalam, English",Paid/Private,Yes
Kerala,Kasaragod,Arimala Hospital,,,,Arimala Hospital,,,,,,671315,"Malayalam, English",Paid/Private,Yes
Kerala,Kasaragod,Care and Cure Hospital,,,,Care and Cure Hospital,,,,,,671315,"Malayalam, English",Paid/Private,Yes
Kerala,Kasaragod,Cims Hospital,,,,Cims Hospital,,,,,,671315,"Malayalam, English",Paid/Private,Yes
Kerala,Kasaragod,City Nursing Home,,,,City Nursing Home,,,,,,671315,"Malayalam, English",Paid/Private,Yes
Kerala,Kasaragod,Deepa Nursing Home,,,,Deepa Nursing Home,,,,,,671315,"Malayalam, English",Paid/Private,Yes
Kerala,Kasaragod,Kanhangad Nursing Home,,,,Kanhangad Nursing Home,,,,,,671315,"Malayalam, English",Paid/Private,Yes
Kerala,Kasaragod,Manzoor Hospital,,,,Manzoor Hospital,,,,,,671315,"Malayalam, English",Paid/Private,Yes
Kerala,Kasaragod,Padma Polyclinic,,,,Padma Polyclinic,,,,,,671315,"Malayalam, English",Paid/Private,Yes
Kerala,Kasaragod,Priyadarshini Hospital and Deepa Nursing Home,,,,Priyadarshini Hospital and Deepa Nursing Home,,,,,,671315,"Malayalam, English",Paid/Private,Yes
Kerala,Kasaragod,Satchidananda Institute Of Medical Science,,,,Satchidananda Institute Of Medical Science,,,,,,671315,"Malayalam, English",Paid/Private,Yes
Kerala,Kasaragod,Shashirekhas Maternity Day Care Centre,,,,Shashirekhas Maternity Day Care Centre,,,,,,671315,"Malayalam, English",Paid/Private,Yes
Kerala,Kasaragod,Sims Comtrust Eye Care Hospital,,,,Sims Comtrust Eye Care Hospital,,,,,,671315,"Malayalam, English",Paid/Private,Yes
Kerala,Kasaragod,Surgicare Centre and Hospital,,,,Surgicare Centre and Hospital,,,,,,671315,"Malayalam, English",Paid/Private,Yes
Kerala,Kasaragod,K N H Hospital,,,,K N H Hospital,,,,,,671322,"Malayalam, English",Paid/Private,Yes
Kerala,Kasaragod,Uppala Health Complex,,,,Uppala Health Complex,,,,,,671322,"Malayalam, English",Paid/Private,Yes
Kerala,Kasaragod,Holy Mary's Hospital,,,,Holy Mary's Hospital,,,,,,671533,"Malayalam, English",Paid/Private,Yes
Kerala,Kasaragod,"Krishna Clinic , Maternity and Nursing Home",,,,"Krishna Clinic , Maternity and Nursing Home",,,,,,671543,"Malayalam, English",Paid/Private,Yes
Kerala,Kasaragod,Peoples Clinic and Hospital,,,,Peoples Clinic and Hospital,,,,,,671543,"Malayalam, English",Paid/Private,Yes
Kerala,Ernakulam,Amrita  Institute Of Medical Sciences,Public/ Government,Medical College / Institute,Allopathic,Amrita  Institute Of Medical Sciences,,,,,www.aimshospital.org,682041,"Malayalam, English",Free/Low Cost,Yes
Kerala,Ernakulam,Cochin Medical College and Hospital,Public/ Government,Hospital,Allopathic,Cochin Medical College and Hospital,,,,,www.cmccochin.org,683503,"Malayalam, English",Free/Low Cost,Yes
Kerala,Ernakulam,Sree Narayana Institute of Medical Science,Public/ Government,Medical College / Institute,Allopathic,Sree Narayana Institute of Medical Science,,,,,www.snims.org,683594,"Malayalam, English",Free/Low Cost,Yes
Kerala,Ernakulam,Don Bosco Hospital,Private,Hospital,Allopathic,"Anesthesiology,\n Cardiology,\n Cosmetology,\n Dermatology,\n ENT,\n General Medicine,\n General Surgery,\n Maxillofacial  Surgery,\n Obstetricsand Gynaecology,\n Ophthalmology,\n Orthopedics,\n Pediatrics,\n Psychiatry,\n Radiology,\n Urology","24 hours Emergency and Trauma Unit,\nLaboratory  Services,\nDiagnostic",,,,http://www.donboscohospital.org/,683513,"Malayalam, English",Paid/Private,Yes
Kerala,Ernakulam,Amrita Institute of Medical Sciences (AIMS),Private,Medical College / Institute/Hospital,Allopathic,"Cardiology,\n Cardiothoracic Surgery,\n Cardiovascular Surgery,\n Dermatology,\n Emergency Medicine,\n Endocrinology, ENT,\nGastroenterology,\n Gastrointestinal, Medicine,\n General Medicine,\n General Surgery,\n Hepatology,\n Kidney Transplantation,\n Liver Transplant,\n Medical Oncology,\n Micro-Biology,\n Neonatology\n Nephrology\n Neuro Surgery,\n Neurology\n Nuclear Medicine,\n Obstetricsand Gynaecology,\n Ophthalmology,\n Orthopedics,\n Pain Management,\n Pathology,\n Pediatric Cardiology,\n Pediatric, Cardiothoracic Surgery,\n Pediatric Neurology,\n Pediatrics,\n Psychiatry,\n Pulmonology,\n Radiation Oncology,\n Speech Therapy,\n Surgical Oncology,\n Urology",,,,,http://www.aimshospital.org,682041,"Malayalam, English",Paid/Private,Yes
Kerala,Ernakulam,Punarnava Ayurveda Hospital,Private,Hospital,Ayush/ Ayurveda,Ayurveda,"Pizhichil,\nNjavarakzhi,\nVasthi,\nSirovasthi,\nUdvarthanam,\nAbhayangam",,,,http://www.punarnava.net,682024,"Malayalam, English",Paid/Private,Yes
Kerala,Ernakulam,Lourdes Hospital,Private,Hospital,Allopathic,Anesthesiology\n Cardiology\n Cardiothoracic Surgery\n Dentistry\n Dermatology\n ENT\n Gastroenterology\n General Medicine\n General Surgery\n Gynaecology\n Neonatology\n Nephrology\n Neuro Surgery\n Neurology\n Ophthalmology\n Orthopedics\n Pediatrics\n Radiology,Laboratory\nEEG\nEMG\nNCV\nTMT,,,,http://www.lourdeshospital.in,682012,"Malayalam, English",Paid/Private,Yes
Kerala,Ernakulam,Malankara Orthodox Syrian Church Medical College (M.O.S.C.M.C),Public/ Government,Hospital,Allopathic,Malankara Orthodox Syrian Church Medical College (M.O.S.C.M.C),,,,,www.moscmm.org,682311,"Malayalam, English",Free/Low Cost,Yes
Kerala,Kollam,A M Hospital,,,,A M Hospital,,,,,,690518,"Malayalam, English",Paid/Private,Yes
Kerala,Kollam,Pearl Hospital,,,,Pearl Hospital,,,,,,690518,"Malayalam, English",Paid/Private,Yes
Kerala,Kollam,Mar Theodosius Memorial Med Mission,,,,Mar Theodosius Memorial Med Mission,,,,,,690520,"Malayalam, English",Paid/Private,Yes
Kerala,Kollam,Nava Bharath Hospital,,,,Nava Bharath Hospital,,,,,,690521,"Malayalam, English",Paid/Private,Yes
Kerala,Kollam,Padmavathy Medical Foundation,,,,Padmavathy Medical Foundation,,,,,,690521,"Malayalam, English",Paid/Private,Yes
Kerala,Kollam,Mariyanam Hospital,,,,Mariyanam Hospital,,,,,,690522,"Malayalam, English",Paid/Private,Yes
Kerala,Kollam,Parabrahma Speciality Hospital and Research Centre,,,,Parabrahma Speciality Hospital and Research Centre,,,,,,690526,"Malayalam, English",Paid/Private,Yes
Kerala,Kollam,Priyanka Eye Hospital,,,,Priyanka Eye Hospital,,,,,,690528,"Malayalam, English",Paid/Private,Yes
Kerala,Kollam,Amardeep Eye Hospital and Laser Surgery Center,,,,Amardeep Eye Hospital and Laser Surgery Center,,,,,,691001,"Malayalam, English",Paid/Private,Yes
Kerala,Kollam,Arafa M M Hospital,,,,Arafa M M Hospital,,,,,,691001,"Malayalam, English",Paid/Private,Yes
Kerala,Kollam,Bishop Benziger Hospital,,,,Bishop Benziger Hospital,,,,,,691001,"Malayalam, English",Paid/Private,Yes
Kerala,Kollam,Modern Urology Hospital,,,,Modern Urology Hospital,,,,,,691001,"Malayalam, English",Paid/Private,Yes
Kerala,Kollam,S.N. Trust Medical Mission Hospital,,,,S.N. Trust Medical Mission Hospital,,,,,,691001,"Malayalam, English",Paid/Private,Yes
Kerala,Kollam,S.S.M Hospital,,,,S.S.M Hospital,,,,,,691001,"Malayalam, English",Paid/Private,Yes
Kerala,Kollam,Sree Narayana Trusts Medical Mission,,,,Sree Narayana Trusts Medical Mission,,,,,,691001,"Malayalam, English",Paid/Private,Yes
Kerala,Kollam,Upasana Hospital,,,,Upasana Hospital,,,,,,691001,"Malayalam, English",Paid/Private,Yes
Kerala,Kollam,Dr Nair Hospital,,,,Dr Nair Hospital,,,,,,691002,"Malayalam, English",Paid/Private,Yes
Kerala,Kollam,Surya Hospital,,,,Surya Hospital,,,,,,691005,"Malayalam, English",Paid/Private,Yes
Kerala,Kollam,Devans Hospital,,,,Devans Hospital,,,,,,691014,"Malayalam, English",Paid/Private,Yes
Kerala,Kollam,Dr.Viswanathan Memmorial Hospital,,,,Dr.Viswanathan Memmorial Hospital,,,,,,691020,"Malayalam, English",Paid/Private,Yes
Kerala,Kollam,N.S. Memmorial,,,,N.S. Memmorial,,,,,,691020,"Malayalam, English",Paid/Private,Yes
Kerala,Kollam,N.S. Memorial Institute Of Medical Sciences,,,,N.S. Memorial Institute Of Medical Sciences,,,,,,691020,"Malayalam, English",Paid/Private,Yes
Kerala,Kollam,Ahalia Foundation Eye Hospital,,,,Ahalia Foundation Eye Hospital,,,,,,691301,"Malayalam, English",Paid/Private,Yes
Kerala,Kollam,Thayabji Hospital,,,,Thayabji Hospital,,,,,,691301,"Malayalam, English",Paid/Private,Yes
Kerala,Kollam,Deen Hospital,,,,Deen Hospital,,,,,,691305,"Malayalam, English",Paid/Private,Yes
Kerala,Kollam,Poyanil Hospital,,,,Poyanil Hospital,,,,,,691305,"Malayalam, English",Paid/Private,Yes
Kerala,Kollam,Pranavam Hospital (P) Ltd,,,,Pranavam Hospital (P) Ltd,,,,,,691305,"Malayalam, English",Paid/Private,Yes
Kerala,Kollam,Sree Shanmukha Vilasam Hospital - Kollam,,,,Sree Shanmukha Vilasam Hospital - Kollam,,,,,,691305,"Malayalam, English",Paid/Private,Yes
Kerala,Kollam,St. Thomas Hospital,,,,St. Thomas Hospital,,,,,,691305,"Malayalam, English",Paid/Private,Yes
Kerala,Kollam,Anchal Hospital For Mother and Child,,,,Anchal Hospital For Mother and Child,,,,,,691306,"Malayalam, English",Paid/Private,Yes
Kerala,Kollam,Parackattu Medical Trust,,,,Parackattu Medical Trust,,,,,,691306,"Malayalam, English",Paid/Private,Yes
Kerala,Kollam,Sabari Giri Hospital,,,,Sabari Giri Hospital,,,,,,691306,"Malayalam, English",Paid/Private,Yes
Kerala,Kollam,St.Joseph's Mission Hospital,,,,St.Joseph's Mission Hospital,,,,,,691306,"Malayalam, English",Paid/Private,Yes
Kerala,Kollam,Shankar's Eye Hospital,,,,Shankar's Eye Hospital,,,,,,691333,"Malayalam, English",Paid/Private,Yes
Kerala,Kollam,Assisi Atonement Hospital,,,,Assisi Atonement Hospital,,,,,,691504,"Malayalam, English",Paid/Private,Yes
Kerala,Kollam,T.H.Q Hospital,,,,T.H.Q Hospital,,,,,,691504,"Malayalam, English",Paid/Private,Yes
Kerala,Kollam,Aroma Medical Centre,,,,Aroma Medical Centre,,,,,,691506,"Malayalam, English",Paid/Private,Yes
Kerala,Kollam,Little Flower Mission Hospital,,,,Little Flower Mission Hospital,,,,,,691508,"Malayalam, English",Paid/Private,Yes
Kerala,Kollam,Christu Raj Hospital,,,,Christu Raj Hospital,,,,,,691531,"Malayalam, English",Paid/Private,Yes
Kerala,Kollam,K.N.S Hospital,,,,K.N.S Hospital,,,,,,691531,"Malayalam, English",Paid/Private,Yes
Kerala,Kollam,Lotus Heart Hospital,,,,Lotus Heart Hospital,,,,,,691531,"Malayalam, English",Paid/Private,Yes
Kerala,Kollam,Maithri Multi Speciality Hospital,,,,Maithri Multi Speciality Hospital,,,,,,691531,"Malayalam, English",Paid/Private,Yes
Kerala,Kollam,Nirmala Hospital,,,,Nirmala Hospital,,,,,,691531,"Malayalam, English",Paid/Private,Yes
Kerala,Kollam,Sri Narayancharatable Society,,,,Sri Narayancharatable Society,,,,,,691531,"Malayalam, English",Paid/Private,Yes
Kerala,Kollam,Sri Sathya Sai Super Speciality Hospital,,,,Sri Sathya Sai Super Speciality Hospital,,,,,,691531,"Malayalam, English",Paid/Private,Yes
Kerala,Kollam,Vijaya Hospital,,,,Vijaya Hospital,,,,,,691531,"Malayalam, English",Paid/Private,Yes
Kerala,Kollam,Mercy Hospital,,,,Mercy Hospital,,,,,,691532,"Malayalam, English",Paid/Private,Yes
Kerala,Kollam,Hari Sree Hospital,,,,Hari Sree Hospital,,,,,,691534,"Malayalam, English",Paid/Private,Yes
Kerala,Kollam,Chc Nilamel,,,,Chc Nilamel,,,,,,691535,"Malayalam, English",Paid/Private,Yes
Kerala,Kollam,Arafa Medical Mission Hospital and School Of Nursing,,,,Arafa Medical Mission Hospital and School Of Nursing,,,,,,691536,"Malayalam, English",Paid/Private,Yes
Kerala,Kollam,S.M. Hospital,,,,S.M. Hospital,,,,,,691536,"Malayalam, English",Paid/Private,Yes
Kerala,Kollam,Azeezia Mediacal College Hospital - Kollam,,,,Azeezia Mediacal College Hospital - Kollam,,,,,,691537,"Malayalam, English",Paid/Private,Yes
Kerala,Kollam,Kerala Ent Research Foundation,,,,Kerala Ent Research Foundation,,,,,,691572,"Malayalam, English",Paid/Private,Yes
Kerala,Kollam,Royal Hospital,,,,Royal Hospital,,,,,,691573,"Malayalam, English",Paid/Private,Yes
Kerala,Kollam,C.Achutha Menon Co-Operative Hospital,,,,C.Achutha Menon Co-Operative Hospital,,,,,,691577,"Malayalam, English",Paid/Private,Yes
Kerala,Kollam,Sivapriya Ayurvedic Hospital,,,,Sivapriya Ayurvedic Hospital,,,,,,691579,"Malayalam, English",Paid/Private,Yes
Kerala,Kollam,Aravind Medical Centre,,,,Aravind Medical Centre,,,,,,691583,"Malayalam, English",Paid/Private,Yes
Kerala,Kollam,Travancore Medical College Hospital,,,,Travancore Medical College Hospital,,,,,,691589,"Malayalam, English",Paid/Private,Yes
Kerala,Kollam,Kayalvarath Ayurvedha Hospital,,,,Kayalvarath Ayurvedha Hospital,,,,,,691601,"Malayalam, English",Paid/Private,Yes
Kerala,Kollam,Matha Medical Centre,,,,Matha Medical Centre,,,,,,691601,"Malayalam, English",Paid/Private,Yes
Kerala,Kollam,Azeezia Medical College,Public/ Government,Hospital,Allopathic,Azeezia Medical College,,,,,http://www.azeezia.com/,691537,"Malayalam, English",Free/Low Cost,Yes
Kerala,Kollam,A.A.Rahim Memorial District Hospital,Public/ Government,Hospital,Allopathic,"Cardiology, Dental,\nDermatology, Ent,\nGynaecology,\nCancer care,\nOphthalmology,\nOrthopedic,\nPsychiatry,\nRadiology,\nSurgery,\nUrology,\n","Ct scan,\nEcg,\nX-ray, ambulance\nBlood bank / blood storage,\n24 hr Casualty,\nCoronary care unit,\nIntensive care unit,\nBiochemistry,\nhaematology,\nHistopathology,\nMicrobiology\n",,,,,691001,"Malayalam, English",Free/Low Cost,Yes
Kerala,Kollam,CHC Neendakara,Public/ Government,Hospital,Allopathic,"Dental,\nDermatology, Ent,\nGynaecology,\nPediatrics,\nSurgery\n",haematology,,,,,691588,"Malayalam, English",Free/Low Cost,Yes
Kerala,Kollam,Dr. A.Shahul Hammed Superintend Taluk Hospital,Public/ Government,Hospital,Allopathic,"Dental,\nDermatology, Ent,\nGynaecology,\nPediatrics,\nSurgery","Ecg\nX-ray, ambulance\nBlood bank / blood storage\n24 hr Casualty, Biochemistry\nhaematology\nMicrobiology\n",,,,,691305,"Malayalam, English",Free/Low Cost,Yes
Kerala,Kollam,GovernmentRama Rao Hospital,Public/ Government,Hospital,Allopathic,"Antinatal care,\nImmunisation,\nIntra uterine, contraceptive,\nMedical termination, of pregnancy,\nTb diagnosis,\nTb treatment\n","ECG\nX-RAY, Ambulance\nBlood bank / blood storage\n24 hr Casualty, Biochemistry\nhaematology\nMicrobiology\n",,,,,691334,"Malayalam, English",Free/Low Cost,Yes
Kerala,Kollam,GovernmentVictoriya Hospital,Public/ Government,Hospital,Allopathic,"Ophthalmology,\nPediatrics,\nSurgery\n","Ecg,\nUltrasonography, ambulance\n24 hr causality, Biochemistry,\nhaematology\n",,,,,691001,"Malayalam, English",Free/Low Cost,Yes
Kerala,Kollam,Taluk Head Quaters Hospital,Public/ Government,Hospital,Allopathic,"Dental,\nEnt,\nGynaecology,\nOphthalmology,\nPediatrics,\nPsychiatry,\nSurgery\n","Ecg,\nX-ray, blood bank / Blood storage, Biochemistry,\nhaematology\n",,,,,695304,"Malayalam, English",Free/Low Cost,Yes
Kerala,Kollam,Taluk Hospital Kadakal,Public/ Government,Hospital,Allopathic,Gynaecology\n,"ECG,\nUltrasonography, Biochemistry",,,,,691536,"Malayalam, English",Free/Low Cost,Yes
Kerala,Kottayam,Bharath Charitable Hospital Society,,,,Bharath Charitable Hospital Society,,,,,,686001,"Malayalam, English",Paid/Private,Yes
Kerala,Kottayam,District Hospital,,,,District Hospital,,,,,,686001,"Malayalam, English",Paid/Private,Yes
Kerala,Kottayam,Karipal Hospital,,,,Karipal Hospital,,,,,,686001,"Malayalam, English",Paid/Private,Yes
Kerala,Kottayam,Kottayam Kidney Hospital,,,,Kottayam Kidney Hospital,,,,,,686001,"Malayalam, English",Paid/Private,Yes
Kerala,Kottayam,"Mangalam Hospitals Pvt. Ltd.,",,,,"Mangalam Hospitals Pvt. Ltd.,",,,,,,686001,"Malayalam, English",Paid/Private,Yes
Kerala,Kottayam,Mar Dionysius Hospital,,,,Mar Dionysius Hospital,,,,,,686001,"Malayalam, English",Paid/Private,Yes
Kerala,Kottayam,S H Medical Center,,,,S H Medical Center,,,,,,686001,"Malayalam, English",Paid/Private,Yes
Kerala,Kottayam,Thaluk Head Quarters,,,,Thaluk Head Quarters,,,,,,686001,"Malayalam, English",Paid/Private,Yes
Kerala,Kottayam,Udayagiri Multi Speciality Hospital,,,,Udayagiri Multi Speciality Hospital,,,,,,686001,"Malayalam, English",Paid/Private,Yes
Kerala,Kottayam,Women And Children,,,,Women And Children,,,,,,686001,"Malayalam, English",Paid/Private,Yes
Kerala,Kottayam,Anugraha Institute Of Physiotherapy andRehabilitation,,,,Anugraha Institute Of Physiotherapy andRehabilitation,,,,,,686003,"Malayalam, English",Paid/Private,Yes
Kerala,Kottayam,H and W Cardiac Center,,,,H and W Cardiac Center,,,,,,686003,"Malayalam, English",Paid/Private,Yes
Kerala,Kottayam,Vasan Eye Care Hospital,,,,Vasan Eye Care Hospital,,,,,,686003,"Malayalam, English",Paid/Private,Yes
Kerala,Kottayam,Institute Of Child Health and Children Hospital,,,,Institute Of Child Health and Children Hospital,,,,,,686008,"Malayalam, English",Paid/Private,Yes
Kerala,Kottayam,Medical College Hospital,,,,Medical College Hospital,,,,,,686008,"Malayalam, English",Paid/Private,Yes
Kerala,Kottayam,Bhavana Hospital,,,,Bhavana Hospital,,,,,,686009,"Malayalam, English",Paid/Private,Yes
Kerala,Kottayam,Paret Mar Ivanios Hospital,,,,Paret Mar Ivanios Hospital,,,,,,686011,"Malayalam, English",Paid/Private,Yes
Kerala,Kottayam,Bharath Hospital,,,,Bharath Hospital,,,,,,686016,"Malayalam, English",Paid/Private,Yes
Kerala,Kottayam,Caritas Hospital,,,,Caritas Hospital,,,,,,686016,"Malayalam, English",Paid/Private,Yes
Kerala,Kottayam,"The Mundakapadam Mandiram Hospital,",,,,"The Mundakapadam Mandiram Hospital,",,,,,,686018,"Malayalam, English",Paid/Private,Yes
Kerala,Kottayam,Abraham Infertility Research Laproscopic,,,,Abraham Infertility Research Laproscopic,,,,,,686101,"Malayalam, English",Paid/Private,Yes
Kerala,Kottayam,Sree Sankara (Ayurveda) Hospital,,,,Sree Sankara (Ayurveda) Hospital,,,,,,686102,"Malayalam, English",Paid/Private,Yes
Kerala,Kottayam,Sanjeevani Nursing Home,,,,Sanjeevani Nursing Home,,,,,,686104,"Malayalam, English",Paid/Private,Yes
Kerala,Kottayam,"St, Thomas Hospital Chethipuzha",,,,"St, Thomas Hospital Chethipuzha",,,,,,686104,"Malayalam, English",Paid/Private,Yes
Kerala,Kottayam,C N K Hospital (P) Ltd.,,,,C N K Hospital (P) Ltd.,,,,,,686106,"Malayalam, English",Paid/Private,Yes
Kerala,Kottayam,Medicare Childrens Hospital,,,,Medicare Childrens Hospital,,,,,,686122,"Malayalam, English",Paid/Private,Yes
Kerala,Kottayam,"Indo American Hospital, Brain and Spine",,,,"Indo American Hospital, Brain and Spine",,,,,,686143,"Malayalam, English",Paid/Private,Yes
Kerala,Kottayam,Edayazham,,,,Edayazham,,,,,,686144,"Malayalam, English",Paid/Private,Yes
Kerala,Kottayam,Pampady,,,,Pampady,,,,,,686502,"Malayalam, English",Paid/Private,Yes
Kerala,Kottayam,S. Joseph Memorial Hospital,,,,S. Joseph Memorial Hospital,,,,,,686502,"Malayalam, English",Paid/Private,Yes
Kerala,Kottayam,Good Samaritan Hospital,,,,Good Samaritan Hospital,,,,,,686506,"Malayalam, English",Paid/Private,Yes
Kerala,Kottayam,Pnp Memorial (Kvms) Hindu Medical Mission,,,,Pnp Memorial (Kvms) Hindu Medical Mission,,,,,,686506,"Malayalam, English",Paid/Private,Yes
Kerala,Kottayam,Santhinikethan,,,,Santhinikethan,,,,,,686506,"Malayalam, English",Paid/Private,Yes
Kerala,Kottayam,Kadamapuzha Hospital,,,,Kadamapuzha Hospital,,,,,,686507,"Malayalam, English",Paid/Private,Yes
Kerala,Kottayam,St Josephs Eye and Ent Hospital,,,,St Josephs Eye and Ent Hospital,,,,,,686507,"Malayalam, English",Paid/Private,Yes
Kerala,Kottayam,Erumely,,,,Erumely,,,,,,686509,"Malayalam, English",Paid/Private,Yes
Kerala,Kottayam,Assisi Hospital,,,,Assisi Hospital,,,,,,686510,"Malayalam, English",Paid/Private,Yes
Kerala,Kottayam,Highrange Hospital,,,,Highrange Hospital,,,,,,686512,"Malayalam, English",Paid/Private,Yes
Kerala,Kottayam,Mundakayam Medical Trust Hospital,,,,Mundakayam Medical Trust Hospital,,,,,,686513,"Malayalam, English",Paid/Private,Yes
Kerala,Kottayam,Koottickal,,,,Koottickal,,,,,,686514,"Malayalam, English",Paid/Private,Yes
Kerala,Kottayam,Mary Queens Mission Hospital,,,,Mary Queens Mission Hospital,,,,,,686518,"Malayalam, English",Paid/Private,Yes
Kerala,Kottayam,Hw Cardiac Center,,,,Hw Cardiac Center,,,,,,686531,"Malayalam, English",Paid/Private,Yes
Kerala,Kottayam,M M Medical Center,,,,M M Medical Center,,,,,,686531,"Malayalam, English",Paid/Private,Yes
Kerala,Kottayam,Sachivothampuram,,,,Sachivothampuram,,,,,,686532,"Malayalam, English",Paid/Private,Yes
Kerala,Kottayam,Thottakkadu,,,,Thottakkadu,,,,,,686539,"Malayalam, English",Paid/Private,Yes
Kerala,Kottayam,Karuckachal,,,,Karuckachal,,,,,,686540,"Malayalam, English",Paid/Private,Yes
Kerala,Kottayam,Mercy Nursing Home (Pvt) Ltd,,,,Mercy Nursing Home (Pvt) Ltd,,,,,,686540,"Malayalam, English",Paid/Private,Yes
Kerala,Kottayam,S J Eye Hospital,,,,S J Eye Hospital,,,,,,686540,"Malayalam, English",Paid/Private,Yes
Kerala,Kottayam,Sreerangom C.V.N. Kalari Chikilsakendram,,,,Sreerangom C.V.N. Kalari Chikilsakendram,,,,,,686540,"Malayalam, English",Paid/Private,Yes
Kerala,Kottayam,Edayirikkapuzha,,,,Edayirikkapuzha,,,,,,686541,"Malayalam, English",Paid/Private,Yes
Kerala,Kottayam,St. Ritas Hospital,,,,St. Ritas Hospital,,,,,,686548,"Malayalam, English",Paid/Private,Yes
Kerala,Kottayam,Mar Geevarghese Dionysius Memorial Hospital,,,,Mar Geevarghese Dionysius Memorial Hospital,,,,,,686555,"Malayalam, English",Paid/Private,Yes
Kerala,Kottayam,Kumarakam,,,,Kumarakam,,,,,,686563,"Malayalam, English",Paid/Private,Yes
Kerala,Kottayam,Kadaplamattom,,,,Kadaplamattom,,,,,,686571,"Malayalam, English",Paid/Private,Yes
Kerala,Kottayam,Ramapuram,,,,Ramapuram,,,,,,686571,"Malayalam, English",Paid/Private,Yes
Kerala,Kottayam,Marian Medical Centre Pala,,,,Marian Medical Centre Pala,,,,,,686574,"Malayalam, English",Paid/Private,Yes
Kerala,Kottayam,Carmel Medical Centre,,,,Carmel Medical Centre,,,,,,686575,"Malayalam, English",Paid/Private,Yes
Kerala,Kottayam,General Hospital,,,,General Hospital,,,,,,686575,"Malayalam, English",Paid/Private,Yes
Kerala,Kottayam,Upasana Hospital,,,,Upasana Hospital,,,,,,686575,"Malayalam, English",Paid/Private,Yes
Kerala,Kottayam,Paika,,,,Paika,,,,,,686577,"Malayalam, English",Paid/Private,Yes
Kerala,Kottayam,Immaculate Heart Of Mary Hospital,,,,Immaculate Heart Of Mary Hospital,,,,,,686578,"Malayalam, English",Paid/Private,Yes
Kerala,Kottayam,St.Xaviers Hospital,,,,St.Xaviers Hospital,,,,,,686602,"Malayalam, English",Paid/Private,Yes
Kerala,Kottayam,Arunoottimangalam,,,,Arunoottimangalam,,,,,,686604,"Malayalam, English",Paid/Private,Yes
Kerala,Kottayam,Mercy Hospital,,,,Mercy Hospital,,,,,,686605,"Malayalam, English",Paid/Private,Yes
Kerala,Kottayam,Thalayoraparampu,,,,Thalayoraparampu,,,,,,686605,"Malayalam, English",Paid/Private,Yes
Kerala,Kottayam,Pulickal Ayurveda Hospital,,,,Pulickal Ayurveda Hospital,,,,,,686610,"Malayalam, English",Paid/Private,Yes
Kerala,Kottayam,Holy Ghost Mission Hospital,,,,Holy Ghost Mission Hospital,,,,,,686613,"Malayalam, English",Paid/Private,Yes
Kerala,Kottayam,Matha Hospital - Kottayam,,,,Matha Hospital - Kottayam,,,,,,686630,"Malayalam, English",Paid/Private,Yes
Kerala,Kottayam,Vimala Hospital,,,,Vimala Hospital,,,,,,686631,"Malayalam, English",Paid/Private,Yes
Kerala,Kottayam,Chaithanya Trust Hospital,,,,Chaithanya Trust Hospital,,,,,,686633,"Malayalam, English",Paid/Private,Yes
Kerala,Kottayam,St Vincents Hospital,,,,St Vincents Hospital,,,,,,686633,"Malayalam, English",Paid/Private,Yes
Kerala,Kottayam,Uzhavoor,,,,Uzhavoor,,,,,,686634,"Malayalam, English",Paid/Private,Yes
Kerala,Kottayam,M U M Hospital,,,,M U M Hospital,,,,,,686636,"Malayalam, English",Paid/Private,Yes
Kerala,Kottayam,M K M Hospital,,,,M K M Hospital,,,,,,686651,"Malayalam, English",Paid/Private,Yes
Kerala,Kottayam,Ullanadu,,,,Ullanadu,,,,,,686651,"Malayalam, English",Paid/Private,Yes
Kerala,Kottayam,Edamaruk,,,,Edamaruk,,,,,,686652,"Malayalam, English",Paid/Private,Yes
Kerala,Kottayam,"Government Medical College, Kottayam",Public/ Government,Hospital,Allopathic,"Government Medical College, Kottayam",,,,,www.kottayammedicalcollege.org,686008,"Malayalam, English",Free/Low Cost,Yes
Kerala,Kozhikode,Adithya Ayurvedic Hospital and Research Centre,,,,Adithya Ayurvedic Hospital and Research Centre,,,,,,673001,"Malayalam, English",Paid/Private,Yes
Kerala,Kozhikode,Asoka Hospital,,,,Asoka Hospital,,,,,,673001,"Malayalam, English",Paid/Private,Yes
Kerala,Kozhikode,Chest Hospital,,,,Chest Hospital,,,,,,673001,"Malayalam, English",Paid/Private,Yes
Kerala,Kozhikode,City Eye Foundation,,,,City Eye Foundation,,,,,,673001,"Malayalam, English",Paid/Private,Yes
Kerala,Kozhikode,Fathima Hospital,,,,Fathima Hospital,,,,,,673001,"Malayalam, English",Paid/Private,Yes
Kerala,Kozhikode,National Hospital,,,,National Hospital,,,,,,673001,"Malayalam, English",Paid/Private,Yes
Kerala,Kozhikode,Portland As-Salama Hospital,,,,Portland As-Salama Hospital,,,,,,673001,"Malayalam, English",Paid/Private,Yes
Kerala,Kozhikode,Rajendra Nursing Home,,,,Rajendra Nursing Home,,,,,,673001,"Malayalam, English",Paid/Private,Yes
Kerala,Kozhikode,S.D.K. Health Complex,,,,S.D.K. Health Complex,,,,,,673001,"Malayalam, English",Paid/Private,Yes
Kerala,Kozhikode,Shiba Surgery and Urology Center,,,,Shiba Surgery and Urology Center,,,,,,673001,"Malayalam, English",Paid/Private,Yes
Kerala,Kozhikode,Avp Ayushman Ayurveda Hospital,,,,Avp Ayushman Ayurveda Hospital,,,,,,673002,"Malayalam, English",Paid/Private,Yes
Kerala,Kozhikode,Calicutent Centre ( Chest Hospital ),,,,Calicutent Centre ( Chest Hospital ),,,,,,673002,"Malayalam, English",Paid/Private,Yes
Kerala,Kozhikode,P.V.S Hospital (P) Ltd.,,,,P.V.S Hospital (P) Ltd.,,,,,,673002,"Malayalam, English",Paid/Private,Yes
Kerala,Kozhikode,Al Salama Eye Hospital,,,,Al Salama Eye Hospital,,,,,,673004,"Malayalam, English",Paid/Private,Yes
Kerala,Kozhikode,Baby Memorial Hospital,,,,Baby Memorial Hospital,,,,,,673004,"Malayalam, English",Paid/Private,Yes
Kerala,Kozhikode,Comtrust Eye Hospital,,,,Comtrust Eye Hospital,,,,,,673004,"Malayalam, English",Paid/Private,Yes
Kerala,Kozhikode,Dr. Agarwal Vasans Eye Hospital,,,,Dr. Agarwal Vasans Eye Hospital,,,,,,673004,"Malayalam, English",Paid/Private,Yes
Kerala,Kozhikode,Vasan Eye Care Hospital,,,,Vasan Eye Care Hospital,,,,,,673004,"Malayalam, English",Paid/Private,Yes
Kerala,Kozhikode,Dr Manojs Ent Super Speciality Institute and Researc,,,,Dr Manojs Ent Super Speciality Institute and Researc,,,,,,673005,"Malayalam, English",Paid/Private,Yes
Kerala,Kozhikode,Kozhikode District Co-Op Hospital Limited,,,,Kozhikode District Co-Op Hospital Limited,,,,,,673006,"Malayalam, English",Paid/Private,Yes
Kerala,Kozhikode,Malabar Hospitals and Urology Centre,,,,Malabar Hospitals and Urology Centre,,,,,,673006,"Malayalam, English",Paid/Private,Yes
Kerala,Kozhikode,Sukrutham Ayurveda Chikitsalayam,,,,Sukrutham Ayurveda Chikitsalayam,,,,,,673007,"Malayalam, English",Paid/Private,Yes
Kerala,Kozhikode,Koyas Hospital. - Calicut,,,,Koyas Hospital. - Calicut,,,,,,673008,"Malayalam, English",Paid/Private,Yes
Kerala,Kozhikode,Iqraa Hospital,,,,Iqraa Hospital,,,,,,673009,"Malayalam, English",Paid/Private,Yes
Kerala,Kozhikode,Ahalia Foundation Eye Hospital,,,,Ahalia Foundation Eye Hospital,,,,,,673011,"Malayalam, English",Paid/Private,Yes
Kerala,Kozhikode,Malabar Diabities Foundation and Re-Search Centre,,,,Malabar Diabities Foundation and Re-Search Centre,,,,,,673011,"Malayalam, English",Paid/Private,Yes
Kerala,Kozhikode,"Sridhar Hospital Pvt Ltd ,",,,,"Sridhar Hospital Pvt Ltd ,",,,,,,673011,"Malayalam, English",Paid/Private,Yes
Kerala,Kozhikode,"Cradele Calicut Maternity Care Pvt. Ltd.,",,,,"Cradele Calicut Maternity Care Pvt. Ltd.,",,,,,,673014,"Malayalam, English",Paid/Private,Yes
Kerala,Kozhikode,R.M.Hospital,,,,R.M.Hospital,,,,,,673015,"Malayalam, English",Paid/Private,Yes
Kerala,Kozhikode,Malabar Institute Of Medical Sciences Ltd,,,,Malabar Institute Of Medical Sciences Ltd,,,,,,673016,"Malayalam, English",Paid/Private,Yes
Kerala,Kozhikode,Malabar Multispecialty Centre Pvt. Ltd.,,,,Malabar Multispecialty Centre Pvt. Ltd.,,,,,,673020,"Malayalam, English",Paid/Private,Yes
Kerala,Kozhikode,Ahalia Foundation Eye Hospital,,,,Ahalia Foundation Eye Hospital,,,,,,673101,"Malayalam, English",Paid/Private,Yes
Kerala,Kozhikode,Ceeyam Hospitals (P) Ltd,,,,Ceeyam Hospitals (P) Ltd,,,,,,673101,"Malayalam, English",Paid/Private,Yes
Kerala,Kozhikode,The Badagara Sahakarana Asupathri Ltd.,,,,The Badagara Sahakarana Asupathri Ltd.,,,,,,673101,"Malayalam, English",Paid/Private,Yes
Kerala,Kozhikode,Nithyananda Sidha Marmma Ayurveda Hospital,,,,Nithyananda Sidha Marmma Ayurveda Hospital,,,,,,673305,"Malayalam, English",Paid/Private,Yes
Kerala,Kozhikode,Sharada Health Centre,,,,Sharada Health Centre,,,,,,673305,"Malayalam, English",Paid/Private,Yes
Kerala,Kozhikode,Aswini Hospital and Maternity Center,,,,Aswini Hospital and Maternity Center,,,,,,673307,"Malayalam, English",Paid/Private,Yes
Kerala,Kozhikode,Malabar Medical College Hospital,,,,Malabar Medical College Hospital,,,,,,673315,"Malayalam, English",Paid/Private,Yes
Kerala,Kozhikode,Vims Hospital,,,,Vims Hospital,,,,,,673506,"Malayalam, English",Paid/Private,Yes
Kerala,Kozhikode,K.M.C. Hospital,,,,K.M.C. Hospital,,,,,,673508,"Malayalam, English",Paid/Private,Yes
Kerala,Kozhikode,Medical College Hospital,,,,Medical College Hospital,,,,,,673508,"Malayalam, English",Paid/Private,Yes
Kerala,Kozhikode,Santhi Hospital,,,,Santhi Hospital,,,,,,673572,"Malayalam, English",Paid/Private,Yes
Kerala,Kozhikode,Chavara Hospital Thamarassery,,,,Chavara Hospital Thamarassery,,,,,,673573,"Malayalam, English",Paid/Private,Yes
Kerala,Kozhikode,Mother Mary Hospital,,,,Mother Mary Hospital,,,,,,673573,"Malayalam, English",Paid/Private,Yes
Kerala,Kozhikode,Sakalya Ayurveda Hospital,,,,Sakalya Ayurveda Hospital,,,,,,673601,"Malayalam, English",Paid/Private,Yes
Kerala,Kozhikode,Kmct Medical College Hospital,,,,Kmct Medical College Hospital,,,,,,673602,"Malayalam, English",Paid/Private,Yes
Kerala,Kozhikode,St.Joseph Hospital,,,,St.Joseph Hospital,,,,,,673602,"Malayalam, English",Paid/Private,Yes
Kerala,Kozhikode,Alph0Nsa Hospital,,,,Alph0Nsa Hospital,,,,,,673603,"Malayalam, English",Paid/Private,Yes
Kerala,Kozhikode,K K Hospital,,,,K K Hospital,,,,,,673612,"Malayalam, English",Paid/Private,Yes
Kerala,Kozhikode,M.M. Hospital,,,,M.M. Hospital,,,,,,673616,"Malayalam, English",Paid/Private,Yes
Kerala,Kozhikode,Koya's Hospital,,,,Koya's Hospital,,,,,,673631,"Malayalam, English",Paid/Private,Yes
Kerala,Kozhikode,Mch Unit Cheruppa,,,,Mch Unit Cheruppa,,,,,,673661,"Malayalam, English",Paid/Private,Yes
Kerala,Kozhikode,"Government Medical College, Kozhikode",Public/ Government,Hospital,Allopathic,"Government Medical College, Kozhikode",,,,,www.calicutmedicalcollege.ac.in,673008,"Malayalam, English",Free/Low Cost,Yes
Kerala,Malappuram,Relief Hospital and Trauma Centre,,,,Relief Hospital and Trauma Centre,,,,,,673638,"Malayalam, English",Paid/Private,Yes
Kerala,Malappuram,"Al-Abeer Hospital Pvt. Ltd.,",,,,"Al-Abeer Hospital Pvt. Ltd.,",,,,,,673641,"Malayalam, English",Paid/Private,Yes
Kerala,Malappuram,Melepurakkal Hospital,,,,Melepurakkal Hospital,,,,,,673641,"Malayalam, English",Paid/Private,Yes
Kerala,Malappuram,City Hospital,,,,City Hospital,,,,,,676101,"Malayalam, English",Paid/Private,Yes
Kerala,Malappuram,Tirur Mission Hospital,,,,Tirur Mission Hospital,,,,,,676101,"Malayalam, English",Paid/Private,Yes
Kerala,Ernakulam,Al Noor Hospital,,,,Al Noor Hospital,,,,,,676103,"Malayalam, English",Paid/Private,Yes
Kerala,Malappuram,Soorya Hospital,,,,Soorya Hospital,,,,,,676105,"Malayalam, English",Paid/Private,Yes
Kerala,Malappuram,Ahalia Foundation Eye Hospital,,,,Ahalia Foundation Eye Hospital,,,,,,676121,"Malayalam, English",Paid/Private,Yes
Kerala,Malappuram,Prasanthi Hitech Hospital,,,,Prasanthi Hitech Hospital,,,,,,676121,"Malayalam, English",Paid/Private,Yes
Kerala,Malappuram,Treeg Eye Care Hospital,,,,Treeg Eye Care Hospital,,,,,,676121,"Malayalam, English",Paid/Private,Yes
Kerala,Malappuram,Korambayil Hospital - Manjeri,,,,Korambayil Hospital - Manjeri,,,,,,676122,"Malayalam, English",Paid/Private,Yes
Kerala,Malappuram,Prashanthi Hi-Tech Hospital ( Holy Cross Hosital Pvt. Ltd),,,,Prashanthi Hi-Tech Hospital ( Holy Cross Hosital Pvt. Ltd),,,,,,676122,"Malayalam, English",Paid/Private,Yes
Kerala,Malappuram,Maanu Memorial Hospital,,,,Maanu Memorial Hospital,,,,,,676123,"Malayalam, English",Paid/Private,Yes
Kerala,Malappuram,Malabar Hospital,,,,Malabar Hospital,,,,,,676123,"Malayalam, English",Paid/Private,Yes
Kerala,Malappuram,Lisa Hospital,,,,Lisa Hospital,,,,,,676303,"Malayalam, English",Paid/Private,Yes
Kerala,Malappuram,Daya Hospital,,,,Daya Hospital,,,,,,676307,"Malayalam, English",Paid/Private,Yes
Kerala,Malappuram,Moonniyur Nursing Home,,,,Moonniyur Nursing Home,,,,,,676311,"Malayalam, English",Paid/Private,Yes
Kerala,Malappuram,Ahalia Foundation Eye Hospital,,,,Ahalia Foundation Eye Hospital,,,,,,676501,"Malayalam, English",Paid/Private,Yes
Kerala,Malappuram,Almas Hospital,,,,Almas Hospital,,,,,,676503,"Malayalam, English",Paid/Private,Yes
Kerala,Malappuram,Arya Vaidya Sala Kottakkal,,,,Arya Vaidya Sala Kottakkal,,,,,,676503,"Malayalam, English",Paid/Private,Yes
Kerala,Malappuram,Malabar Institute Of Medical Sciences Ltd,,,,Malabar Institute Of Medical Sciences Ltd,,,,,,676503,"Malayalam, English",Paid/Private,Yes
Kerala,Malappuram,Pg Mediacal Trust Hospital,,,,Pg Mediacal Trust Hospital,,,,,,676503,"Malayalam, English",Paid/Private,Yes
Kerala,Malappuram,M. K. Haji Orphanage Hospital,,,,M. K. Haji Orphanage Hospital,,,,,,676505,"Malayalam, English",Paid/Private,Yes
Kerala,Malappuram,P.M.S.A Memorial Malappuram District  Co.Op Hospital Ltd,,,,P.M.S.A Memorial Malappuram District  Co.Op Hospital Ltd,,,,,,676505,"Malayalam, English",Paid/Private,Yes
Kerala,Malappuram,K P M Hospital Pvt Ltd and Whole Body Ct Scan Center,,,,K P M Hospital Pvt Ltd and Whole Body Ct Scan Center,,,,,,676519,"Malayalam, English",Paid/Private,Yes
Kerala,Malappuram,Orchid Kpm Hospital,,,,Orchid Kpm Hospital,,,,,,676519,"Malayalam, English",Paid/Private,Yes
Kerala,Malappuram,Nizar Hospital,,,,Nizar Hospital,,,,,,676552,"Malayalam, English",Paid/Private,Yes
Kerala,Malappuram,Al Salama Eye Hospital Ltd,,,,Al Salama Eye Hospital Ltd,,,,,,679322,"Malayalam, English",Paid/Private,Yes
Kerala,Malappuram,Al Shifa Hospital Pvt Ltd,,,,Al Shifa Hospital Pvt Ltd,,,,,,679322,"Malayalam, English",Paid/Private,Yes
Kerala,Malappuram,Ems Memorial Co Op Hospital and Research Center,,,,Ems Memorial Co Op Hospital and Research Center,,,,,,679322,"Malayalam, English",Paid/Private,Yes
Kerala,Malappuram,Family Polyclinic,,,,Family Polyclinic,,,,,,679322,"Malayalam, English",Paid/Private,Yes
Kerala,Malappuram,Ramdas Clinic and Nursing Home,,,,Ramdas Clinic and Nursing Home,,,,,,679322,"Malayalam, English",Paid/Private,Yes
Kerala,Malappuram,S R D Ayurvedics,,,,S R D Ayurvedics,,,,,,679323,"Malayalam, English",Paid/Private,Yes
Kerala,Malappuram,Nims Hospital,,,,Nims Hospital,,,,,,679328,"Malayalam, English",Paid/Private,Yes
Kerala,Malappuram,B. M.Hospital,,,,B. M.Hospital,,,,,,679329,"Malayalam, English",Paid/Private,Yes
Kerala,Malappuram,Devi Nursing Home,,,,Devi Nursing Home,,,,,,679329,"Malayalam, English",Paid/Private,Yes
Kerala,Malappuram,Elamkulam Hospital,,,,Elamkulam Hospital,,,,,,679329,"Malayalam, English",Paid/Private,Yes
Kerala,Malappuram,Grace Speciality Hospital,,,,Grace Speciality Hospital,,,,,,679331,"Malayalam, English",Paid/Private,Yes
Kerala,Malappuram,Moulana Hospital,,,,Moulana Hospital,,,,,,679332,"Malayalam, English",Paid/Private,Yes
Kerala,Malappuram,Sacred Heart Multi Speciality Hospital,,,,Sacred Heart Multi Speciality Hospital,,,,,,679333,"Malayalam, English",Paid/Private,Yes
Kerala,Malappuram,Mar Thoma Mission Hospital,,,,Mar Thoma Mission Hospital,,,,,,679334,"Malayalam, English",Paid/Private,Yes
Kerala,Malappuram,Mes Medical College Hospital,,,,Mes Medical College Hospital,,,,,,679338,"Malayalam, English",Paid/Private,Yes
Kerala,Malappuram,Sukapuram Hospital,,,,Sukapuram Hospital,,,,,,679572,"Malayalam, English",Paid/Private,Yes
Kerala,Malappuram,Edappal Hospitals (P) Ltd,,,,Edappal Hospitals (P) Ltd,,,,,,679576,"Malayalam, English",Paid/Private,Yes
Kerala,Malappuram,Rayhan Eye Hospital and Laser Centre,,,,Rayhan Eye Hospital and Laser Centre,,,,,,679576,"Malayalam, English",Paid/Private,Yes
Kerala,Malappuram,Sunrise Hospital,,,,Sunrise Hospital,,,,,,679576,"Malayalam, English",Paid/Private,Yes
Kerala,Malappuram,Najath Hospital,,,,Najath Hospital,,,,,,679577,"Malayalam, English",Paid/Private,Yes
Kerala,Malappuram,Sanatana Multispeciality Holistic Hospital,,,,Sanatana Multispeciality Holistic Hospital,,,,,,679591,"Malayalam, English",Paid/Private,Yes
Kerala,Malappuram,Malabar Medical College,Public/ Government,Hospital,Allopathic,Malabar Medical College,,,,,www.mmccalicut.com/,673321,"Malayalam, English",Free/Low Cost,Yes
Kerala,Palakkad,C.K.J. Clinic,,,,C.K.J. Clinic,,,,,,678001,"Malayalam, English",Paid/Private,Yes
Kerala,Palakkad,Kerala Nursing Home,,,,Kerala Nursing Home,,,,,,678001,"Malayalam, English",Paid/Private,Yes
Kerala,Palakkad,Malabar Hospitals / Fort Hospital Ltd,,,,Malabar Hospitals / Fort Hospital Ltd,,,,,,678001,"Malayalam, English",Paid/Private,Yes
Kerala,Palakkad,Palat Memorial Hospital,,,,Palat Memorial Hospital,,,,,,678001,"Malayalam, English",Paid/Private,Yes
Kerala,Palakkad,Sarada Nursing Home,,,,Sarada Nursing Home,,,,,,678001,"Malayalam, English",Paid/Private,Yes
Kerala,Palakkad,The Palakkad Hospital and Research Centre,,,,The Palakkad Hospital and Research Centre,,,,,,678001,"Malayalam, English",Paid/Private,Yes
Kerala,Palakkad,Trinity Eye Centre,,,,Trinity Eye Centre,,,,,,678001,"Malayalam, English",Paid/Private,Yes
Kerala,Palakkad,Dr Menons Hospital,,,,Dr Menons Hospital,,,,,,678002,"Malayalam, English",Paid/Private,Yes
Kerala,Palakkad,Sai Nursing Home,,,,Sai Nursing Home,,,,,,678002,"Malayalam, English",Paid/Private,Yes
Kerala,Palakkad,Seventh Day Adventist Hospital,,,,Seventh Day Adventist Hospital,,,,,,678002,"Malayalam, English",Paid/Private,Yes
Kerala,Palakkad,Prasanthi Hospital,,,,Prasanthi Hospital,,,,,,678003,"Malayalam, English",Paid/Private,Yes
Kerala,Palakkad,Thangam Hospital Of Pmrc,,,,Thangam Hospital Of Pmrc,,,,,,678004,"Malayalam, English",Paid/Private,Yes
Kerala,Palakkad,Karuna Hospital,,,,Karuna Hospital,,,,,,678006,"Malayalam, English",Paid/Private,Yes
Kerala,Palakkad,United Hospital,,,,United Hospital,,,,,,678006,"Malayalam, English",Paid/Private,Yes
Kerala,Palakkad,Welcare Hospital Palakkad,,,,Welcare Hospital Palakkad,,,,,,678006,"Malayalam, English",Paid/Private,Yes
Kerala,Palakkad,Devi Nursing Home,,,,Devi Nursing Home,,,,,,678012,"Malayalam, English",Paid/Private,Yes
Kerala,Palakkad,Lakshmi Hospital,,,,Lakshmi Hospital,,,,,,678013,"Malayalam, English",Paid/Private,Yes
Kerala,Palakkad,Palghat Poly Clinic,,,,Palghat Poly Clinic,,,,,,678013,"Malayalam, English",Paid/Private,Yes
Kerala,Palakkad,Vasan Eye Care Hospital,,,,Vasan Eye Care Hospital,,,,,,678013,"Malayalam, English",Paid/Private,Yes
Kerala,Palakkad,Vijaya Hospital,,,,Vijaya Hospital,,,,,,678013,"Malayalam, English",Paid/Private,Yes
Kerala,Palakkad,Dr T Madhavi Amma Medical Trust,,,,Dr T Madhavi Amma Medical Trust,,,,,,678014,"Malayalam, English",Paid/Private,Yes
Kerala,Palakkad,Crescent Hospital,,,,Crescent Hospital,,,,,,678541,"Malayalam, English",Paid/Private,Yes
Kerala,Palakkad,Santhigiri Ayurveda Medical College and Hospital,,,,Santhigiri Ayurveda Medical College and Hospital,,,,,,678551,"Malayalam, English",Paid/Private,Yes
Kerala,Palakkad,Esaf Hospital,,,,Esaf Hospital,,,,,,678555,"Malayalam, English",Paid/Private,Yes
Kerala,Palakkad,Unity Hospital,,,,Unity Hospital,,,,,,678555,"Malayalam, English",Paid/Private,Yes
Kerala,Palakkad,Ahalia Foundation Eye Hospital,,,,Ahalia Foundation Eye Hospital,,,,,,678557,"Malayalam, English",Paid/Private,Yes
Kerala,Palakkad,Mannarkad Nursing Home,,,,Mannarkad Nursing Home,,,,,,678582,"Malayalam, English",Paid/Private,Yes
Kerala,Palakkad,Assumption Hospital,,,,Assumption Hospital,,,,,,678591,"Malayalam, English",Paid/Private,Yes
Kerala,Palakkad,Ahalia Foundation Eye Hospital,,,,Ahalia Foundation Eye Hospital,,,,,,678622,"Malayalam, English",Paid/Private,Yes
Kerala,Palakkad,Paalana Institute Of Medical Sciences,,,,Paalana Institute Of Medical Sciences,,,,,,678701,"Malayalam, English",Paid/Private,Yes
Kerala,Palakkad,Narayana Ayurveda Chikithsalayam,,,,Narayana Ayurveda Chikithsalayam,,,,,,678704,"Malayalam, English",Paid/Private,Yes
Kerala,Palakkad,Aswini Hospital,,,,Aswini Hospital,,,,,,679101,"Malayalam, English",Paid/Private,Yes
Kerala,Palakkad,Nandavanam Ayurvedic Hospitals,,,,Nandavanam Ayurvedic Hospitals,,,,,,679101,"Malayalam, English",Paid/Private,Yes
Kerala,Palakkad,Comtrust Ottapalam Eye Care Hospital,,,,Comtrust Ottapalam Eye Care Hospital,,,,,,679102,"Malayalam, English",Paid/Private,Yes
Kerala,Palakkad,K.A.Samajam Hospital and Nursing Home,,,,K.A.Samajam Hospital and Nursing Home,,,,,,679121,"Malayalam, English",Paid/Private,Yes
Kerala,Palakkad,Sutharia,,,,Sutharia,,,,,,679121,"Malayalam, English",Paid/Private,Yes
Kerala,Palakkad,Sanjeevani Hospital Pvt Ltd,,,,Sanjeevani Hospital Pvt Ltd,,,,,,679122,"Malayalam, English",Paid/Private,Yes
Kerala,Palakkad,Keraleeyaayurveda Samajam Hospital,,,,Keraleeyaayurveda Samajam Hospital,,,,,,679123,"Malayalam, English",Paid/Private,Yes
Kerala,Palakkad,Ahalia Ayurvedic Hospital,,,,Ahalia Ayurvedic Hospital,,,,,,679302,"Malayalam, English",Paid/Private,Yes
Kerala,Palakkad,Nila Hospital ( Pvt) Ltd,,,,Nila Hospital ( Pvt) Ltd,,,,,,679303,"Malayalam, English",Paid/Private,Yes
Kerala,Palakkad,Karunya Hospital,,,,Karunya Hospital,,,,,,679503,"Malayalam, English",Paid/Private,Yes
Kerala,Palakkad,Poonthottam Ayurvedasram Hospital,,,,Poonthottam Ayurvedasram Hospital,,,,,,679503,"Malayalam, English",Paid/Private,Yes
Kerala,Palakkad,Parakkottil Krishnan Memorial Ayurvediac Reaserch,,,,Parakkottil Krishnan Memorial Ayurvediac Reaserch,,,,,,679513,"Malayalam, English",Paid/Private,Yes
Kerala,Palakkad,P K Das Institute Of Medical Sciences,,,,P K Das Institute Of Medical Sciences,,,,,,679522,"Malayalam, English",Paid/Private,Yes
Kerala,Palakkad,Valluvanad Hospital,,,,Valluvanad Hospital,,,,,,679533,"Malayalam, English",Paid/Private,Yes
Kerala,Palakkad,Cns Ayurveda Chikitsalayam and Research Center,,,,Cns Ayurveda Chikitsalayam and Research Center,,,,,,679534,"Malayalam, English",Paid/Private,Yes
Kerala,Palakkad,Vaidyamadham Vaidyasala and Nursing Home,,,,Vaidyamadham Vaidyasala and Nursing Home,,,,,,679534,"Malayalam, English",Paid/Private,Yes
Kerala,Palakkad,Guru Kripa Heritage Ayurvedic Treatment,,,,Guru Kripa Heritage Ayurvedic Treatment,,,,,,679535,"Malayalam, English",Paid/Private,Yes
Kerala,Palakkad,Karuna Medical College,Public/ Government,Hospital,Allopathic,Karuna Medical College,,,,,www.karunamedicalcollege.edu.in,678103,"Malayalam, English",Free/Low Cost,Yes
Kerala,Pathanamthitta,Athura Hospital,,,,Athura Hospital,,,,,,689101,"Malayalam, English",Paid/Private,Yes
Kerala,Pathanamthitta,Eye Microsurgery and Laser Centre,,,,Eye Microsurgery and Laser Centre,,,,,,689101,"Malayalam, English",Paid/Private,Yes
Kerala,Pathanamthitta,I Vision Eye Hospital A Unit Of Jasm Eye Hospital Pvt Ltd,,,,I Vision Eye Hospital A Unit Of Jasm Eye Hospital Pvt Ltd,,,,,,689101,"Malayalam, English",Paid/Private,Yes
Kerala,Pathanamthitta,Mary Queens Mission Hospital,,,,Mary Queens Mission Hospital,,,,,,689101,"Malayalam, English",Paid/Private,Yes
Kerala,Pathanamthitta,Pushpagiri Institute Of Medical Science And Research Centre,,,,Pushpagiri Institute Of Medical Science And Research Centre,,,,,,689101,"Malayalam, English",Paid/Private,Yes
Kerala,Pathanamthitta,Tiruvalla Medical Mission,,,,Tiruvalla Medical Mission,,,,,,689101,"Malayalam, English",Paid/Private,Yes
Kerala,Pathanamthitta,Archana Hospital,,,,Archana Hospital,,,,,,689501,"Malayalam, English",Paid/Private,Yes
Kerala,Pathanamthitta,Chitra Multi Speciality Hospital,,,,Chitra Multi Speciality Hospital,,,,,,689501,"Malayalam, English",Paid/Private,Yes
Kerala,Pathanamthitta,Christian Mission Hospital,,,,Christian Mission Hospital,,,,,,689501,"Malayalam, English",Paid/Private,Yes
Kerala,Pathanamthitta,Nss Medical Mission Hospital,,,,Nss Medical Mission Hospital,,,,,,689501,"Malayalam, English",Paid/Private,Yes
Kerala,Pathanamthitta,Changethu Ayurveda Hospital,,,,Changethu Ayurveda Hospital,,,,,,689503,"Malayalam, English",Paid/Private,Yes
Kerala,Pathanamthitta,Medical Trust Hospital,,,,Medical Trust Hospital,,,,,,689503,"Malayalam, English",Paid/Private,Yes
Kerala,Pathanamthitta,Ambolil Ayurvedic Research Centre,,,,Ambolil Ayurvedic Research Centre,,,,,,689532,"Malayalam, English",Paid/Private,Yes
Kerala,Pathanamthitta,"St Thomas Hospital, Chenganoor",,,,"St Thomas Hospital, Chenganoor",,,,,,689532,"Malayalam, English",Paid/Private,Yes
Kerala,Pathanamthitta,Kottakkattu Medicare Hospital,,,,Kottakkattu Medicare Hospital,,,,,,689542,"Malayalam, English",Paid/Private,Yes
Kerala,Pathanamthitta,Fellowship Mission Hospital,,,,Fellowship Mission Hospital,,,,,,689547,"Malayalam, English",Paid/Private,Yes
Kerala,Pathanamthitta,Sree Sanjeevani,,,,Sree Sanjeevani,,,,,,689611,"Malayalam, English",Paid/Private,Yes
Kerala,Pathanamthitta,S N Nursing Home,,,,S N Nursing Home,,,,,,689621,"Malayalam, English",Paid/Private,Yes
Kerala,Pathanamthitta,St Gregorios Vascular Centre,,,,St Gregorios Vascular Centre,,,,,,689626,"Malayalam, English",Paid/Private,Yes
Kerala,Pathanamthitta,Mar Gregorious Memorial Muthoot Medical Center,,,,Mar Gregorious Memorial Muthoot Medical Center,,,,,,689641,"Malayalam, English",Paid/Private,Yes
Kerala,Pathanamthitta,Mgm Muthoot Medical Centre,,,,Mgm Muthoot Medical Centre,,,,,,689641,"Malayalam, English",Paid/Private,Yes
Kerala,Pathanamthitta,Poyanil Hospital,,,,Poyanil Hospital,,,,,,689641,"Malayalam, English",Paid/Private,Yes
Kerala,Pathanamthitta,Ahalia Foundation Eye Hospital,,,,Ahalia Foundation Eye Hospital,,,,,,689645,"Malayalam, English",Paid/Private,Yes
Kerala,Pathanamthitta,Changethu Bhaskaran Nair Memorial Hospital,,,,Changethu Bhaskaran Nair Memorial Hospital,,,,,,689645,"Malayalam, English",Paid/Private,Yes
Kerala,Pathanamthitta,Geo Medical Trust Superspeciality Hospital,,,,Geo Medical Trust Superspeciality Hospital,,,,,,689645,"Malayalam, English",Paid/Private,Yes
Kerala,Pathanamthitta,Holy Cross Hospital Adoor,,,,Holy Cross Hospital Adoor,,,,,,689645,"Malayalam, English",Paid/Private,Yes
Kerala,Pathanamthitta,Life Care Hospital,,,,Life Care Hospital,,,,,,689645,"Malayalam, English",Paid/Private,Yes
Kerala,Pathanamthitta,Sabitha Eye Care Hospital,,,,Sabitha Eye Care Hospital,,,,,,689645,"Malayalam, English",Paid/Private,Yes
Kerala,Pathanamthitta,Swami Saswathikananda Mission Hospital,,,,Swami Saswathikananda Mission Hospital,,,,,,689645,"Malayalam, English",Paid/Private,Yes
Kerala,Pathanamthitta,Mulamoottil Eye Hospital,,,,Mulamoottil Eye Hospital,,,,,,689647,"Malayalam, English",Paid/Private,Yes
Kerala,Pathanamthitta,Menathottam Hospital,,,,Menathottam Hospital,,,,,,689674,"Malayalam, English",Paid/Private,Yes
Kerala,Pathanamthitta,Ranny Mar Thoma Medical Mission Hospital,,,,Ranny Mar Thoma Medical Mission Hospital,,,,,,689674,"Malayalam, English",Paid/Private,Yes
Kerala,Pathanamthitta,Believers Church Medical Centre,,,,Believers Church Medical Centre,,,,,,689691,"Malayalam, English",Paid/Private,Yes
Kerala,Pathanamthitta,Chc Konni,,,,Chc Konni,,,,,,689691,"Malayalam, English",Paid/Private,Yes
Kerala,Pathanamthitta,Peniel Hospital,,,,Peniel Hospital,,,,,,689695,"Malayalam, English",Paid/Private,Yes
Kerala,Pathanamthitta,Lifeline Super Speciality For Mother And Child,,,,Lifeline Super Speciality For Mother And Child,,,,,,691523,"Malayalam, English",Paid/Private,Yes
Kerala,Pathanamthitta,Maria Hospital,,,,Maria Hospital,,,,,,691523,"Malayalam, English",Paid/Private,Yes
Kerala,Pathanamthitta,Maria Hospital,,,,Maria Hospital,,,,,,691551,"Malayalam, English",Paid/Private,Yes
Kerala,Pathanamthitta,General Hospital Adoor,Public/ Government,Hospital,Allopathic,"Dental,\nEnt,\nGynaecology,\nOrthopedics,\nPediatrics,\nSurgery\n","Ecg,\nUltra- sonography\nX-ray,\nAmbulance\nBlood bank / Blood storage,\n24 hr causality, haematology\n",,,,,691523,"Malayalam, English",Free/Low Cost,Yes
Kerala,Perintalmanna,M.E.S Medical College,Public/ Government,Hospital,Allopathic,M.E.S Medical College,,,,,www.mesams.com/,679322,"Malayalam, English",Free/Low Cost,Yes
Kerala,Pathanamthitta,Pushpagiri Medical College,Private,Hospital,Allopathic,Pushpagiri Medical College,,,,,www.pushpagiri.in/,689101,"Malayalam, English",Paid/Private,Yes
Kerala,Thiruvananthapuram,Arumana Hospital,,,,Arumana Hospital,,,,,,695001,"Malayalam, English",Paid/Private,Yes
Kerala,Thiruvananthapuram,Government Taliparamba Hospital,Public/ Government,,,Government Taliparamba Hospital,,,,,,695001,"Malayalam, English",Free/Low Cost,Yes
Kerala,Thiruvananthapuram,Gowreesha Hospital,,,,Gowreesha Hospital,,,,,,695001,"Malayalam, English",Paid/Private,Yes
Kerala,Thiruvananthapuram,India Hospital (Unit Of Manhattan Hospital Pvt. Ltd.),,,,India Hospital (Unit Of Manhattan Hospital Pvt. Ltd.),,,,,,695001,"Malayalam, English",Paid/Private,Yes
Kerala,Thiruvananthapuram,Janaki Nursing Home Tsunami Project Only),,,,Janaki Nursing Home Tsunami Project Only),,,,,,695001,"Malayalam, English",Paid/Private,Yes
Kerala,Thiruvananthapuram,Regional Institute Of Ophthalmology,,,,Regional Institute Of Ophthalmology,,,,,,695001,"Malayalam, English",Paid/Private,Yes
Kerala,Thiruvananthapuram,Ruckmoni Memorial Devi Hospital,,,,Ruckmoni Memorial Devi Hospital,,,,,,695001,"Malayalam, English",Paid/Private,Yes
Kerala,Thiruvananthapuram,Saravana Hospital,,,,Saravana Hospital,,,,,,695001,"Malayalam, English",Paid/Private,Yes
Kerala,Thiruvananthapuram,Sut Hospital,,,,Sut Hospital,,,,,,695001,"Malayalam, English",Paid/Private,Yes
Kerala,Thiruvananthapuram,"The Indian Hospital Trust (New Name-Manhattan Hospital Pvt Ltd , )",,,,"The Indian Hospital Trust (New Name-Manhattan Hospital Pvt Ltd , )",,,,,,695001,"Malayalam, English",Paid/Private,Yes
Kerala,Thiruvananthapuram,Chelsa Hospital and Surgical Centre,,,,Chelsa Hospital and Surgical Centre,,,,,,695002,"Malayalam, English",Paid/Private,Yes
Kerala,Thiruvananthapuram,Government Ayurveda College Hospital Thiruvanantha,Public/ Government,,,Government Ayurveda College Hospital Thiruvanantha,,,,,,695002,"Malayalam, English",Free/Low Cost,Yes
Kerala,Thiruvananthapuram,P R S Hospital,,,,P R S Hospital,,,,,,695002,"Malayalam, English",Paid/Private,Yes
Kerala,Thiruvananthapuram,St. Jude Hospitals,,,,St. Jude Hospitals,,,,,,695002,"Malayalam, English",Paid/Private,Yes
Kerala,Thiruvananthapuram,Chaithanya Eye Hospital and Research Institute,,,,Chaithanya Eye Hospital and Research Institute,,,,,,695004,"Malayalam, English",Paid/Private,Yes
Kerala,Thiruvananthapuram,Cosmopolitan Hospital P. Ltd. - Pattom,,,,Cosmopolitan Hospital P. Ltd. - Pattom,,,,,,695004,"Malayalam, English",Paid/Private,Yes
Kerala,Thiruvananthapuram,Dr. Pai Heart Foundation,,,,Dr. Pai Heart Foundation,,,,,,695004,"Malayalam, English",Paid/Private,Yes
Kerala,Thiruvananthapuram,G G Hospital,,,,G G Hospital,,,,,,695004,"Malayalam, English",Paid/Private,Yes
Kerala,Thiruvananthapuram,Meditrina Hospital,,,,Meditrina Hospital,,,,,,695004,"Malayalam, English",Paid/Private,Yes
Kerala,Thiruvananthapuram,Sree Uthradom Thirunal Hospital - Thiruvananthapuram,,,,Sree Uthradom Thirunal Hospital - Thiruvananthapuram,,,,,,695004,"Malayalam, English",Paid/Private,Yes
Kerala,Thiruvananthapuram,Vasan Eye Care Hospital,,,,Vasan Eye Care Hospital,,,,,,695004,"Malayalam, English",Paid/Private,Yes
Kerala,Thiruvananthapuram,Amardeep Eye Care,,,,Amardeep Eye Care,,,,,,695005,"Malayalam, English",Paid/Private,Yes
Kerala,Thiruvananthapuram,Blessing Hospital,,,,Blessing Hospital,,,,,,695005,"Malayalam, English",Paid/Private,Yes
Kerala,Thiruvananthapuram,Dr Govindans Hospital,,,,Dr Govindans Hospital,,,,,,695005,"Malayalam, English",Paid/Private,Yes
Kerala,Thiruvananthapuram,Kolath Medical Center Pvt Ltd,,,,Kolath Medical Center Pvt Ltd,,,,,,695005,"Malayalam, English",Paid/Private,Yes
Kerala,Thiruvananthapuram,Punarjani Institute Of Medical Sciences and Research Center,,,,Punarjani Institute Of Medical Sciences and Research Center,,,,,,695005,"Malayalam, English",Paid/Private,Yes
Kerala,Thiruvananthapuram,"Santhwana Hospital Pvtltd ,",,,,"Santhwana Hospital Pvtltd ,",,,,,,695005,"Malayalam, English",Paid/Private,Yes
Kerala,Thiruvananthapuram,S K Hospital,,,,S K Hospital,,,,,,695006,"Malayalam, English",Paid/Private,Yes
Kerala,Thiruvananthapuram,Saraswathy Hospital,,,,Saraswathy Hospital,,,,,,695006,"Malayalam, English",Paid/Private,Yes
Kerala,Thiruvananthapuram,St Jude Hospitals,,,,St Jude Hospitals,,,,,,695008,"Malayalam, English",Paid/Private,Yes
Kerala,Thiruvananthapuram,Sut Mother and Baby Hospital,,,,Sut Mother and Baby Hospital,,,,,,695009,"Malayalam, English",Paid/Private,Yes
Kerala,Thiruvananthapuram,Sri Ramakrishna Ashrama Charitable Hospital,,,,Sri Ramakrishna Ashrama Charitable Hospital,,,,,,695010,"Malayalam, English",Paid/Private,Yes
Kerala,Thiruvananthapuram,Ahalia Foundation Eye Hospital,,,,Ahalia Foundation Eye Hospital,,,,,,695011,"Malayalam, English",Paid/Private,Yes
Kerala,Thiruvananthapuram,Bhavani Arogyanikethanam,,,,Bhavani Arogyanikethanam,,,,,,695011,"Malayalam, English",Paid/Private,Yes
Kerala,Thiruvananthapuram,Chakrabarti Eye Care Centre,,,,Chakrabarti Eye Care Centre,,,,,,695011,"Malayalam, English",Paid/Private,Yes
Kerala,Thiruvananthapuram,Credence Hospital Private Limited,,,,Credence Hospital Private Limited,,,,,,695011,"Malayalam, English",Paid/Private,Yes
Kerala,Thiruvananthapuram,Divya Prabha Eye Hospital,,,,Divya Prabha Eye Hospital,,,,,,695011,"Malayalam, English",Paid/Private,Yes
Kerala,Thiruvananthapuram,Medical Mission Hospital,,,,Medical Mission Hospital,,,,,,695011,"Malayalam, English",Paid/Private,Yes
Kerala,Thiruvananthapuram,R. Madhvan Nayar Centre For Compr.Epilepsy Care,,,,R. Madhvan Nayar Centre For Compr.Epilepsy Care,,,,,,695011,"Malayalam, English",Paid/Private,Yes
Kerala,Thiruvananthapuram,Regional Cancer Centre,,,,Regional Cancer Centre,,,,,,695011,"Malayalam, English",Paid/Private,Yes
Kerala,Thiruvananthapuram,Sanjeevani Ayurveda Hospitaland Research Institute,,,,Sanjeevani Ayurveda Hospitaland Research Institute,,,,,,695011,"Malayalam, English",Paid/Private,Yes
Kerala,Thiruvananthapuram,Sree Chitra Tirunal Institute For Medical Science,,,,Sree Chitra Tirunal Institute For Medical Science,,,,,,695011,"Malayalam, English",Paid/Private,Yes
Kerala,Thiruvananthapuram,Vanchinad Hospitals,,,,Vanchinad Hospitals,,,,,,695011,"Malayalam, English",Paid/Private,Yes
Kerala,Thiruvananthapuram,K.J.K. Hospital,,,,K.J.K. Hospital,,,,,,695015,"Malayalam, English",Paid/Private,Yes
Kerala,Thiruvananthapuram,Medical College Hospital,,,,Medical College Hospital,,,,,,695023,"Malayalam, English",Paid/Private,Yes
Kerala,Thiruvananthapuram,Sp Fort Hospital,,,,Sp Fort Hospital,,,,,,695023,"Malayalam, English",Paid/Private,Yes
Kerala,Thiruvananthapuram,Vasudeva Vilasam Aryavaidyasala and Nursing Home,,,,Vasudeva Vilasam Aryavaidyasala and Nursing Home,,,,,,695023,"Malayalam, English",Paid/Private,Yes
Kerala,Thiruvananthapuram,Ananthapuri Hospital And Research Institute,,,,Ananthapuri Hospital And Research Institute,,,,,,695024,"Malayalam, English",Paid/Private,Yes
Kerala,Thiruvananthapuram,Avittam Ayurvedic Centre,,,,Avittam Ayurvedic Centre,,,,,,695024,"Malayalam, English",Paid/Private,Yes
Kerala,Thiruvananthapuram,Al Arif Hospital,,,,Al Arif Hospital,,,,,,695026,"Malayalam, English",Paid/Private,Yes
Kerala,Thiruvananthapuram,Chc Poonthura,,,,Chc Poonthura,,,,,,695026,"Malayalam, English",Paid/Private,Yes
Kerala,Thiruvananthapuram,Chc Pulluvila,,,,Chc Pulluvila,,,,,,695026,"Malayalam, English",Paid/Private,Yes
Kerala,Thiruvananthapuram,S.R.Hospital and Surgical Centre,,,,S.R.Hospital and Surgical Centre,,,,,,695026,"Malayalam, English",Paid/Private,Yes
Kerala,Thiruvananthapuram,B.N.V. Hospital,,,,B.N.V. Hospital,,,,,,695027,"Malayalam, English",Paid/Private,Yes
Kerala,Thiruvananthapuram,S U T Medical College Hospital,,,,S U T Medical College Hospital,,,,,,695028,"Malayalam, English",Paid/Private,Yes
Kerala,Thiruvananthapuram,Kerala Institute Of Medical Sciences (Kims),,,,Kerala Institute Of Medical Sciences (Kims),,,,,,695029,"Malayalam, English",Paid/Private,Yes
Kerala,Thiruvananthapuram,Lords Hospital,,,,Lords Hospital,,,,,,695029,"Malayalam, English",Paid/Private,Yes
Kerala,Thiruvananthapuram,Sutami,,,,Sutami,,,,,,695030,"Malayalam, English",Paid/Private,Yes
Kerala,Thiruvananthapuram,Jubilee Memorial Hospital,,,,Jubilee Memorial Hospital,,,,,,695034,"Malayalam, English",Paid/Private,Yes
Kerala,Thiruvananthapuram,Anadiyil Hospital,,,,Anadiyil Hospital,,,,,,695035,"Malayalam, English",Paid/Private,Yes
Kerala,Thiruvananthapuram,Samad Ivf Hospitals,,,,Samad Ivf Hospitals,,,,,,695035,"Malayalam, English",Paid/Private,Yes
Kerala,Thiruvananthapuram,Triveni Nursing Home,,,,Triveni Nursing Home,,,,,,695035,"Malayalam, English",Paid/Private,Yes
Kerala,Thiruvananthapuram,Amar Maternity and Fertility Centre,,,,Amar Maternity and Fertility Centre,,,,,,695101,"Malayalam, English",Paid/Private,Yes
Kerala,Thiruvananthapuram,Attingal Multispecialty Hospital,,,,Attingal Multispecialty Hospital,,,,,,695101,"Malayalam, English",Paid/Private,Yes
Kerala,Thiruvananthapuram,C.S.I. Mission Hospital,,,,C.S.I. Mission Hospital,,,,,,695101,"Malayalam, English",Paid/Private,Yes
Kerala,Thiruvananthapuram,Iris Eye Hospital,,,,Iris Eye Hospital,,,,,,695101,"Malayalam, English",Paid/Private,Yes
Kerala,Thiruvananthapuram,Nims Hospital,,,,Nims Hospital,,,,,,695121,"Malayalam, English",Paid/Private,Yes
Kerala,Thiruvananthapuram,Ponnambalam Child Care,,,,Ponnambalam Child Care,,,,,,695121,"Malayalam, English",Paid/Private,Yes
Kerala,Thiruvananthapuram,Rollands Hospital,,,,Rollands Hospital,,,,,,695121,"Malayalam, English",Paid/Private,Yes
Kerala,Thiruvananthapuram,Noorul Islam Institute Of Medical Science and Research Foundation ( Nims),,,,Noorul Islam Institute Of Medical Science and Research Foundation ( Nims),,,,,,695123,"Malayalam, English",Paid/Private,Yes
Kerala,Thiruvananthapuram,Chc Perumkadavila,,,,Chc Perumkadavila,,,,,,695124,"Malayalam, English",Paid/Private,Yes
Kerala,Thiruvananthapuram,Sneha Nursing Home,,,,Sneha Nursing Home,,,,,,695125,"Malayalam, English",Paid/Private,Yes
Kerala,Thiruvananthapuram,Mangala Medical Centre,,,,Mangala Medical Centre,,,,,,695141,"Malayalam, English",Paid/Private,Yes
Kerala,Thiruvananthapuram,Sivagiri Sreenarayana Medical Mission Hospital (Ssnmm),,,,Sivagiri Sreenarayana Medical Mission Hospital (Ssnmm),,,,,,695141,"Malayalam, English",Paid/Private,Yes
Kerala,Thiruvananthapuram,Stavyah Lifecare Services Pvt Ltd,,,,Stavyah Lifecare Services Pvt Ltd,,,,,,695141,"Malayalam, English",Paid/Private,Yes
Kerala,Thiruvananthapuram,R.V. Hospital,,,,R.V. Hospital,,,,,,695304,"Malayalam, English",Paid/Private,Yes
Kerala,Thiruvananthapuram,Swami Hospital,,,,Swami Hospital,,,,,,695304,"Malayalam, English",Paid/Private,Yes
Kerala,Thiruvananthapuram,Rhc Vakkom,,,,Rhc Vakkom,,,,,,695308,"Malayalam, English",Paid/Private,Yes
Kerala,Thiruvananthapuram,Medical Trust Hospital And Maternity Home,,,,Medical Trust Hospital And Maternity Home,,,,,,695501,"Malayalam, English",Paid/Private,Yes
Kerala,Thiruvananthapuram,Sp Multispeciality Hospital Pvt Ltd,,,,Sp Multispeciality Hospital Pvt Ltd,,,,,,695502,"Malayalam, English",Paid/Private,Yes
Kerala,Thiruvananthapuram,Dr Smcs I Medical College Hospital,,,,Dr Smcs I Medical College Hospital,,,,,,695504,"Malayalam, English",Paid/Private,Yes
Kerala,Thiruvananthapuram,Arsha Ayurveda Hospital,,,,Arsha Ayurveda Hospital,,,,,,695522,"Malayalam, English",Paid/Private,Yes
Kerala,Thiruvananthapuram,Anithara Hospital,,,,Anithara Hospital,,,,,,695525,"Malayalam, English",Paid/Private,Yes
Kerala,Thiruvananthapuram,Chc Poovar,,,,Chc Poovar,,,,,,695525,"Malayalam, English",Paid/Private,Yes
Kerala,Thiruvananthapuram,Rural Institute Of Medical Sciences,,,,Rural Institute Of Medical Sciences,,,,,,695541,"Malayalam, English",Paid/Private,Yes
Kerala,Thiruvananthapuram,Chc Vellanad,,,,Chc Vellanad,,,,,,695543,"Malayalam, English",Paid/Private,Yes
Kerala,Thiruvananthapuram,Pankajakasthuri Ayurveda Medical College Hospital,,,,Pankajakasthuri Ayurveda Medical College Hospital,,,,,,695571,"Malayalam, English",Paid/Private,Yes
Kerala,Thiruvananthapuram,Mamal Hospital,,,,Mamal Hospital,,,,,,695572,"Malayalam, English",Paid/Private,Yes
Kerala,Thiruvananthapuram,P N M Hospital,,,,P N M Hospital,,,,,,695572,"Malayalam, English",Paid/Private,Yes
Kerala,Thiruvananthapuram,Chc Vilappil,,,,Chc Vilappil,,,,,,695573,"Malayalam, English",Paid/Private,Yes
Kerala,Thiruvananthapuram,Aj Hospital,,,,Aj Hospital,,,,,,695582,"Malayalam, English",Paid/Private,Yes
Kerala,Thiruvananthapuram,Rr Hospital and Surgical Centre,,,,Rr Hospital and Surgical Centre,,,,,,695582,"Malayalam, English",Paid/Private,Yes
Kerala,Thiruvananthapuram,Rural Health Training Centre,,,,Rural Health Training Centre,,,,,,695582,"Malayalam, English",Paid/Private,Yes
Kerala,Thiruvananthapuram,Tsc Hospital Pvt. Ltd,,,,Tsc Hospital Pvt. Ltd,,,,,,695583,"Malayalam, English",Paid/Private,Yes
Kerala,Thiruvananthapuram,Karunya Hospital and Diabetic Centre,,,,Karunya Hospital and Diabetic Centre,,,,,,695584,"Malayalam, English",Paid/Private,Yes
Kerala,Thiruvananthapuram,Santhigiri Ayurveda Hospital and Research Institute,,,,Santhigiri Ayurveda Hospital and Research Institute,,,,,,695584,"Malayalam, English",Paid/Private,Yes
Kerala,Thiruvananthapuram,Sarala Memorial Hospital,,,,Sarala Memorial Hospital,,,,,,695601,"Malayalam, English",Paid/Private,Yes
Kerala,Thiruvananthapuram,Sreedhari Aryavaidyasala,,,,Sreedhari Aryavaidyasala,,,,,,695601,"Malayalam, English",Paid/Private,Yes
Kerala,Thiruvananthapuram,Ktct Hospital,,,,Ktct Hospital,,,,,,695605,"Malayalam, English",Paid/Private,Yes
Kerala,Thiruvananthapuram,BPHC Vamanapuram,,,,BPHC Vamanapuram,,,,,,695606,"Malayalam, English",Paid/Private,Yes
Kerala,Thiruvananthapuram,Karete Medical Center ( P ) Ltd Foundation - Thiruvananthapuram,,,,Karete Medical Center ( P ) Ltd Foundation - Thiruvananthapuram,,,,,,695606,"Malayalam, English",Paid/Private,Yes
Kerala,Thiruvananthapuram,Leela Ravi Medical Trust Hospital,,,,Leela Ravi Medical Trust Hospital,,,,,,695607,"Malayalam, English",Paid/Private,Yes
Kerala,Thiruvananthapuram,Sree Gokulam Hospital,,,,Sree Gokulam Hospital,,,,,,695607,"Malayalam, English",Paid/Private,Yes
Kerala,Thiruvananthapuram,Chc Kallara,,,,Chc Kallara,,,,,,695608,"Malayalam, English",Paid/Private,Yes
Kerala,Thiruvananthapuram,Chc Manamboor,,,,Chc Manamboor,,,,,,695611,"Malayalam, English",Paid/Private,Yes
Kerala,Thiruvananthapuram,"Government Medical College, Thiruvananthapuram",Public/ Government,Hospital,Allopathic,"Government Medical College, Thiruvananthapuram",,,,,www.tmc.kerala.gov.in,695011,"Malayalam, English",Free/Low Cost,Yes
Kerala,Thrissur,Manasi Medical Centre,,,,Manasi Medical Centre,,,,,,679531,"Malayalam, English",Paid/Private,Yes
Kerala,Thrissur,Aatma The Ayurvedic Center,,,,Aatma The Ayurvedic Center,,,,,,680001,"Malayalam, English",Paid/Private,Yes
Kerala,Thrissur,Oushadhi Panchkarma Hospital and Research Institute,,,,Oushadhi Panchkarma Hospital and Research Institute,,,,,,680001,"Malayalam, English",Paid/Private,Yes
Kerala,Thrissur,Santhi Speciality Hospital,,,,Santhi Speciality Hospital,,,,,,680001,"Malayalam, English",Paid/Private,Yes
Kerala,Thrissur,Sun Medical And Research Centre / Trichur Heart Hospital Ltd.,,,,Sun Medical And Research Centre / Trichur Heart Hospital Ltd.,,,,,,680001,"Malayalam, English",Paid/Private,Yes
Kerala,Thrissur,Thrissur District  Co-Operative Hospital,,,,Thrissur District  Co-Operative Hospital,,,,,,680001,"Malayalam, English",Paid/Private,Yes
Kerala,Thrissur,Vaidyaratnam Ayurveda College Hospital,,,,Vaidyaratnam Ayurveda College Hospital,,,,,,680001,"Malayalam, English",Paid/Private,Yes
Kerala,Thrissur,Vasan Eye Care Hospital,,,,Vasan Eye Care Hospital,,,,,,680001,"Malayalam, English",Paid/Private,Yes
Kerala,Thrissur,Vinayaka Ayurvedic Nursing Home,,,,Vinayaka Ayurvedic Nursing Home,,,,,,680001,"Malayalam, English",Paid/Private,Yes
Kerala,Thrissur,Kare Krishna Assisted Reproduction And Endoscopy Centre,,,,Kare Krishna Assisted Reproduction And Endoscopy Centre,,,,,,680002,"Malayalam, English",Paid/Private,Yes
Kerala,Thrissur,Westfort Hitech Hospital Ltd,,,,Westfort Hitech Hospital Ltd,,,,,,680002,"Malayalam, English",Paid/Private,Yes
Kerala,Thrissur,Dr Rani Menons Eye Clinic,,,,Dr Rani Menons Eye Clinic,,,,,,680004,"Malayalam, English",Paid/Private,Yes
Kerala,Thrissur,Irinjalakuda Co-Operative Hospital,,,,Irinjalakuda Co-Operative Hospital,,,,,,680004,"Malayalam, English",Paid/Private,Yes
Kerala,Thrissur,Westfort Ayurveda Hospital,,,,Westfort Ayurveda Hospital,,,,,,680004,"Malayalam, English",Paid/Private,Yes
Kerala,Thrissur,"Jubilee Mission Medical College Hospital, Thrissur",,,,"Jubilee Mission Medical College Hospital, Thrissur",,,,,,680005,"Malayalam, English",Paid/Private,Yes
Kerala,Thrissur,Elite Mission Hospital,,,,Elite Mission Hospital,,,,,,680007,"Malayalam, English",Paid/Private,Yes
Kerala,Thrissur,Metropolitan Hospital,,,,Metropolitan Hospital,,,,,,680007,"Malayalam, English",Paid/Private,Yes
Kerala,Thrissur,"Trichur Metropolitan Healthcare Pvt. Ltd.,",,,,"Trichur Metropolitan Healthcare Pvt. Ltd.,",,,,,,680007,"Malayalam, English",Paid/Private,Yes
Kerala,Thrissur,Keerthi Ayurvedic Hospital Pvt. Ltd,,,,Keerthi Ayurvedic Hospital Pvt. Ltd,,,,,,680010,"Malayalam, English",Paid/Private,Yes
Kerala,Thrissur,Chandramathy Amma Memorial Hospital,,,,Chandramathy Amma Memorial Hospital,,,,,,680012,"Malayalam, English",Paid/Private,Yes
Kerala,Thrissur,Mother Hospital (P) Ltd.,,,,Mother Hospital (P) Ltd.,,,,,,680012,"Malayalam, English",Paid/Private,Yes
Kerala,Thrissur,Aswini Hospital Pvt Ltd,,,,Aswini Hospital Pvt Ltd,,,,,,680020,"Malayalam, English",Paid/Private,Yes
Kerala,Thrissur,G.E.M. Hospital,,,,G.E.M. Hospital,,,,,,680020,"Malayalam, English",Paid/Private,Yes
Kerala,Thrissur,Raji Nursing Home,,,,Raji Nursing Home,,,,,,680020,"Malayalam, English",Paid/Private,Yes
Kerala,Thrissur,Vijayasree Eye Hospital,,,,Vijayasree Eye Hospital,,,,,,680020,"Malayalam, English",Paid/Private,Yes
Kerala,Thrissur,Kerala Care And Concern Hospitals Pvt.Ltd(Kcnc),,,,Kerala Care And Concern Hospitals Pvt.Ltd(Kcnc),,,,,,680021,"Malayalam, English",Paid/Private,Yes
Kerala,Thrissur,Sitaram Ayurveda Speciality Hospital,,,,Sitaram Ayurveda Speciality Hospital,,,,,,680021,"Malayalam, English",Paid/Private,Yes
Kerala,Thrissur,Daya Speciality Surgical Centre,,,,Daya Speciality Surgical Centre,,,,,,680022,"Malayalam, English",Paid/Private,Yes
Kerala,Thrissur,Karthiyani,,,,Karthiyani,,,,,,680022,"Malayalam, English",Paid/Private,Yes
Kerala,Thrissur,Saroja Nursing Home,,,,Saroja Nursing Home,,,,,,680022,"Malayalam, English",Paid/Private,Yes
Kerala,Thrissur,K A Specaility Hospital,,,,K A Specaility Hospital,,,,,,680121,"Malayalam, English",Paid/Private,Yes
Kerala,Thrissur,Nethra Eye Care Center,,,,Nethra Eye Care Center,,,,,,680121,"Malayalam, English",Paid/Private,Yes
Kerala,Thrissur,Ahalia Foundation Eye Hospital,,,,Ahalia Foundation Eye Hospital,,,,,,680125,"Malayalam, English",Paid/Private,Yes
Kerala,Thrissur,Ccmk Hospitals,,,,Ccmk Hospitals,,,,,,680307,"Malayalam, English",Paid/Private,Yes
Kerala,Thrissur,San Jos Parish Hospital,,,,San Jos Parish Hospital,,,,,,680307,"Malayalam, English",Paid/Private,Yes
Kerala,Thrissur,St James Hospital,,,,St James Hospital,,,,,,680307,"Malayalam, English",Paid/Private,Yes
Kerala,Thrissur,Taluk Head Quarters Hospital,,,,Taluk Head Quarters Hospital,,,,,,680307,"Malayalam, English",Paid/Private,Yes
Kerala,Thrissur,Devamatha Hospital,,,,Devamatha Hospital,,,,,,680308,"Malayalam, English",Paid/Private,Yes
Kerala,Thrissur,Sunethri Ayurvedashram And Research Centre,,,,Sunethri Ayurvedashram And Research Centre,,,,,,680312,"Malayalam, English",Paid/Private,Yes
Kerala,Thrissur,St. Joseph Hospital,,,,St. Joseph Hospital,,,,,,680502,"Malayalam, English",Paid/Private,Yes
Kerala,Thrissur,Allied Hospitals Ltd,,,,Allied Hospitals Ltd,,,,,,680503,"Malayalam, English",Paid/Private,Yes
Kerala,Thrissur,Ittimani Hospital,,,,Ittimani Hospital,,,,,,680503,"Malayalam, English",Paid/Private,Yes
Kerala,Thrissur,Royal Hospital,,,,Royal Hospital,,,,,,680503,"Malayalam, English",Paid/Private,Yes
Kerala,Thrissur,The M.O.S.C.Medical Mission Hospital,,,,The M.O.S.C.Medical Mission Hospital,,,,,,680503,"Malayalam, English",Paid/Private,Yes
Kerala,Thrissur,Abdul Waheb Memorial Rajah Charitable Hospital,,,,Abdul Waheb Memorial Rajah Charitable Hospital,,,,,,680506,"Malayalam, English",Paid/Private,Yes
Kerala,Thrissur,Rajah Hospital,,,,Rajah Hospital,,,,,,680506,"Malayalam, English",Paid/Private,Yes
Kerala,Thrissur,Modern Hospital,,,,Modern Hospital,,,,,,680512,"Malayalam, English",Paid/Private,Yes
Kerala,Thrissur,Unity Hospital (P) Limited,,,,Unity Hospital (P) Limited,,,,,,680512,"Malayalam, English",Paid/Private,Yes
Kerala,Thrissur,Ansar Hospital,,,,Ansar Hospital,,,,,,680519,"Malayalam, English",Paid/Private,Yes
Kerala,Thrissur,Amala Cancer Hospital And Research Centre,,,,Amala Cancer Hospital And Research Centre,,,,,,680553,"Malayalam, English",Paid/Private,Yes
Kerala,Thrissur,Amrutha Ayurvedic Heritage Centre,,,,Amrutha Ayurvedic Heritage Centre,,,,,,680561,"Malayalam, English",Paid/Private,Yes
Kerala,Thrissur,Divine Medical Cetre Ltd.,,,,Divine Medical Cetre Ltd.,,,,,,680582,"Malayalam, English",Paid/Private,Yes
Kerala,Thrissur,Jeevodaya Mission Hospital,,,,Jeevodaya Mission Hospital,,,,,,680586,"Malayalam, English",Paid/Private,Yes
Kerala,Thrissur,Karuna Hospital,,,,Karuna Hospital,,,,,,680614,"Malayalam, English",Paid/Private,Yes
Kerala,Thrissur,M I Mission Hospital (Tsunami Project Only),,,,M I Mission Hospital (Tsunami Project Only),,,,,,680615,"Malayalam, English",Paid/Private,Yes
Kerala,Thrissur,Mary Immaculate Mission Hospital,,,,Mary Immaculate Mission Hospital,,,,,,680615,"Malayalam, English",Paid/Private,Yes
Kerala,Thrissur,T M Hospital (Tsunami Project Only),,,,T M Hospital (Tsunami Project Only),,,,,,680616,"Malayalam, English",Paid/Private,Yes
Kerala,Thrissur,The Irinjalakuda Co-Operative Hospital Ltd.,,,,The Irinjalakuda Co-Operative Hospital Ltd.,,,,,,680661,"Malayalam, English",Paid/Private,Yes
Kerala,Thrissur,Arya Vaidya Asramam Ayurveda Hospital,,,,Arya Vaidya Asramam Ayurveda Hospital,,,,,,680664,"Malayalam, English",Paid/Private,Yes
Kerala,Thrissur,Craft Hospital,,,,Craft Hospital,,,,,,680664,"Malayalam, English",Paid/Private,Yes
Kerala,Thrissur,Medicare Hospital,,,,Medicare Hospital,,,,,,680664,"Malayalam, English",Paid/Private,Yes
Kerala,Thrissur,Modern Hospital .,,,,Modern Hospital .,,,,,,680664,"Malayalam, English",Paid/Private,Yes
Kerala,Thrissur,K M C Hospital,,,,K M C Hospital,,,,,,680681,"Malayalam, English",Paid/Private,Yes
Kerala,Thrissur,Maria Theressa Hospital,,,,Maria Theressa Hospital,,,,,,680683,"Malayalam, English",Paid/Private,Yes
Kerala,Thrissur,Sacred Heart Mission Hospital,,,,Sacred Heart Mission Hospital,,,,,,680683,"Malayalam, English",Paid/Private,Yes
Kerala,Thrissur,Mother and Child Hospital Kodakara,,,,Mother and Child Hospital Kodakara,,,,,,680684,"Malayalam, English",Paid/Private,Yes
Kerala,Thrissur,Lal Memorial Hospital,,,,Lal Memorial Hospital,,,,,,680712,"Malayalam, English",Paid/Private,Yes
Kerala,Thrissur,Dhanya Mission Hospital,,,,Dhanya Mission Hospital,,,,,,680722,"Malayalam, English",Paid/Private,Yes
Kerala,Thrissur,Palace Hospital,,,,Palace Hospital,,,,,,680722,"Malayalam, English",Paid/Private,Yes
Kerala,Thrissur,"Matha Hospital, Caritas Road",,,,"Matha Hospital, Caritas Road",,,,,,680724,"Malayalam, English",Paid/Private,Yes
Kerala,Thrissur,Ahalia Foundation and Eye Hospital,,,,Ahalia Foundation and Eye Hospital,,,,,,680741,"Malayalam, English",Paid/Private,Yes
Kerala,Thrissur,"Government Medical College, Thrissur",Public/ Government,Hospital,Allopathic,"Government Medical College, Thrissur",,,,,www.mctcr.edu.in,680596,"Malayalam, English",Free/Low Cost,Yes
Kerala,Thrissur,Jubilee Mission Medical College and Research Centre,Public/ Government,Medical College / Institute/ Hospital,Allopathic,Jubilee Mission Medical College and Research Centre,,,,,www.jubileemissionmedicalcollege.org,680005,"Malayalam, English",Free/Low Cost,Yes
Kerala,Thrissur,Amala Institute of Medical Sciences,Public/ Government,Medical College / Institute,Allopathic,Amala Institute of Medical Sciences,,,,,www.amalaims.org,680555,"Malayalam, English",Free/Low Cost,Yes
Kerala,Thiruvananthapuram,"CGHS, Dispensary No.1",Public/ Government,Dispensary,Allopathic,"CGHS, Dispensary No.1",,,,,http://nb.bsf.gov.in/CGHS%20DIspenseries.pdf,695004,"Malayalam, English",Free/Low Cost,Yes
Kerala,Thiruvananthapuram,CGHS Dispensary No.2,Public/ Government,Dispensary,Allopathic,CGHS Dispensary No.2,,,,,http://nb.bsf.gov.in/CGHS%20DIspenseries.pdf,695010,"Malayalam, English",Free/Low Cost,Yes
Kerala,Thiruvananthapuram,CGHS Dispensary No.3,Public/ Government,Dispensary,Allopathic,CGHS Dispensary No.3,,,,,http://nb.bsf.gov.in/CGHS%20DIspenseries.pdf,695035,"Malayalam, English",Free/Low Cost,Yes
Kerala,Thiruvananthapuram,Sree Gokulam Medical College and Research Foundation,Public/ Government,Medical College / Institute/ Hospital,Allopathic,Sree Gokulam Medical College and Research Foundation,,,,,www.sgmc.in,695607,"Malayalam, English",Free/Low Cost,Yes
Kerala,Wayanad,Jyothi Hospital,,,,Jyothi Hospital,,,,,,670645,"Malayalam, English",Paid/Private,Yes
Kerala,Wayanad,St. Vincent's Hospital,,,,St. Vincent's Hospital,,,,,,670645,"Malayalam, English",Paid/Private,Yes
Kerala,Wayanad,Fatima Mata Mission Hospital,,,,Fatima Mata Mission Hospital,,,,,,673121,"Malayalam, English",Paid/Private,Yes
Kerala,Wayanad,K J Medical Trust Hospital,,,,K J Medical Trust Hospital,,,,,,673121,"Malayalam, English",Paid/Private,Yes
Kerala,Wayanad,Kripa Nursing Home,,,,Kripa Nursing Home,,,,,,673121,"Malayalam, English",Paid/Private,Yes
Kerala,Wayanad,Leo Hospital,,,,Leo Hospital,,,,,,673121,"Malayalam, English",Paid/Private,Yes
Kerala,Wayanad,"Dm Wims (Wayanad Institute Of Medical Sciences) - Meppadi (Po),Wayanad",,,,"Dm Wims (Wayanad Institute Of Medical Sciences) - Meppadi (Po),Wayanad",,,,,,673577,"Malayalam, English",Paid/Private,Yes
Kerala,Wayanad,Shrisha Hospital,,,,Shrisha Hospital,,,,,,673579,"Malayalam, English",Paid/Private,Yes
Kerala,Wayanad,M.O.S.C.Medical Mission Eye Hospital,,,,M.O.S.C.Medical Mission Eye Hospital,,,,,,673591,"Malayalam, English",Paid/Private,Yes
Kerala,Wayanad,P B M Hospital,,,,P B M Hospital,,,,,,673591,"Malayalam, English",Paid/Private,Yes
Kerala,Wayanad,Assumption Hospital,,,,Assumption Hospital,,,,,,673592,"Malayalam, English",Paid/Private,Yes
Kerala,Wayanad,M.E.S. Hospital,,,,M.E.S. Hospital,,,,,,673592,"Malayalam, English",Paid/Private,Yes
Kerala,Wayanad,St Marys Mission Hospital,,,,St Marys Mission Hospital,,,,,,673592,"Malayalam, English",Paid/Private,Yes
Kerala,Wayanad,Victory Hospital,,,,Victory Hospital,,,,,,673592,"Malayalam, English",Paid/Private,Yes
Kerala,Wayanad,Vinayaka Hospital,,,,Vinayaka Hospital,,,,,,673592,"Malayalam, English",Paid/Private,Yes
Kerala,Wayanad,Marina Hospital,,,,Marina Hospital,,,,,,673593,"Malayalam, English",Paid/Private,Yes
